PrimaryInsuredName,StreetAddress,StreetAddress_Rev,City,State,Zipcode,NumberOfEmployees,Exposure
NATURAL DAIRY PRODUCTS CORPORATION DBA NATURAL BY NATURE,110 CHRISTINA MEDICAL CENTER,110 CHRISTINA MEDICAL Ctr,NEWARK,DE,19702,0,1449000
King Kargo Carriers LLC,421 Pierce Run,421 Pierce Run,Newark,DE,19702,1,40000
MCCUNE FOUNDATION,1195 RIVER RDPO BOX 302,1195 RIVER RDPO BOX 302,MARIETTA,PA,17547,0,648526
Benner Deer Fence LLC,74 Commerce Drive,74 Commerce Dr,Wyomissing,PA,19610,0,29506
RICHARD SERVICES INC,PO BOX 1225,PO BOX 1225,HOCKESSIN,DE,19707,0,39650
ROARING BROOK ART CO INC,306 OAK RD,306 OAK RD,GLENSIDE,PA,19038,0,7048
15201 Associates LLC,5326 Butler Street,5326 Butler St,Pittsburgh,PA,15201,8,299520
CENTER FOR COLON  RECTAL HEALTH INC,1203 LANGHORNE NEWTOWN RD,1203 LANGHORNE NEWTOWN RD,LANGHORNE,PA,19047,0,356000
JOSE QUEZADA,1118 Treeline Dr,1118 Treeline Dr,Bensalem,PA,19020,0,200000
JMG HOCKEY INC,701 HAYWOOD DR,701 HAYWOOD DR,EXTON,PA,19341,0,1965000
All Jersey Janitorial Services Inc,2250 Chemical Rd,2250 Chemical Rd,Plymouth Meeting,PA,19462,,2820554
ROYAL MANOR PROPERTIES LLC,11743 FRANKSTOWN RD,11743 FRANKSTOWN RD,PITTSBURGH,PA,15235,0,257138
HOME ASSOCIATION OF VFW POST 211,108 S 4TH ST,108 S 4TH ST,Youngwood,PA,15697,0,71521
TerrAscend USA Inc,2701 Lincoln Hwy E,2701 Lincoln Hwy E,Thorndale,PA,19372,0,49636221
SUNNYSIDE FARM TRANSIT INC,9691 ROUTE 18,9691 Rt 18,CRANESVILLE,PA,16410,10,759246
PITTSTON CONVENIENCE INC       BY PASS BEVERAGE INC,325 LAUREL ST,325 LAUREL ST,PITTSTON,PA,18640,0,195036
SJR FIRE LLC,2118 DARBY RD,2118 DARBY RD,HAVERTOWN,PA,19083,,798294
KEYSTONE FARMS CHEESE,3232 KEYSTONE ST,3232 KEYSTONE ST,BETHLEHEM,PA,18020,0,25000
AIR METHODS LLC,21513 RUDDER LANE,21513 RUDDER Ln,GEORGETOWN,DE,19947,8,1342316
SSM Group Inc,1605 N Cedar Crest Blvd,1605 N Cedar Crest Blvd,Allentown,PA,18104,0,7148000
Ramp Construction Company Inc,1020 Rte 519,1020 Rt 519,Eighty Four,PA,15330,0,516200
PROCUT CONCRETE SAWING  DRILLING,200 W. PENN STREET,200 W PENN St,MUNCY,PA,17756,0,0
Quality Stone Veneer Inc,13399 William Penn Hwy,13399 William Penn Hwy,Millerstown,PA,17062,19,3500000
ALEX ROOFING CO INC,1644 EAST 12TH STREET,1644 E 12TH St,ERIE,PA,16511,0,0
HENDRICKS WINDOW CLEANING INC,253 PROSPECT AVE,253 PROSPECT AVE,FRANKLIN,PA,16323,0,20000
GREATER PHILADELPHIA BUSINESS COALITION ON HEALTH,123 S BROAD ST SUITE 1235,123 S BROAD ST Ste 1235,PHILADELPHIA,PA,19109,2,0
RIVERSIDE SALON LLC,462 MAIN ST,462 MAIN ST,ROYERSFORD,PA,19468,0,30000
Constellation Dog Academy LLC,6357 Cherokee St,6357 Cherokee St,Philadelphia,PA,19144,1,1582
Susquehanna Rigging LLC,PO Box 269,PO Box 269,Elizabethville,PA,17023,0,260052
Redding Auction Service Inc,C A Weber Agency 55 Wetzel Dr,,,,,,
TENET HEALTHCARE CORPORATION,2500 BERNVILLE RD,2500 BERNVILLE RD,READING,PA,19605,38,274329
ALLENDALE DENTAL LLC,860 1ST AVE STE 6A,860 1ST AVE STE 6A,KING OF PRUSSIA,PA,19406,0,342585
PYRAMID HEALTH HOLDINGS LLC,225 HUMPHREY RD STE 5,225 HUMPHREY RD STE 5,GREENSBURG,PA,15601,0,54347237
DOING BETTER BUSINESS INC,3304 STATE ST,3304 STATE ST,ERIE,PA,16508,0,4743461
BENSON BENJAMIN,1422 VENTANA DR,1422 VENTANA DR,CORAOPOLIS,PA,15108,1,852980
THREE CROWNS MOTEL            YOGI MANAGMENT CORP D/B/A,205 STEINWEHR AVE,205 STEINWEHR AVE,GETTYSBURG,PA,17325,0,15000
PROTECTIVE COATING COMPANY,215-217 Basin Street,215217 Basin St,Allentown,PA,18102,0,877914
Gary Spencer,199 Pine Cone Dr.,199 Pine Cone Dr,Dover,DE,19904,0,1
EVERETT CHIROPRACTIC INC,519 WILLOW RD,519 WILLOW RD,WALNUTPORT,PA,18088,2,32000
JPC EVENT GROUP               WIMER HOLDINGS CORP D/B/A,3775 E STATE ST,3775 E STATE ST,HERMITAGE,PA,16148,0,313660
COALITION OF PERFUSION SERVICES INC,8459 RIDGE AVE,8459 RIDGE AVE,PHILADELPHIA,PA,19128,0,946582
J H HOLLIDAY INC              POP N BREW SUPER STORE D/B/A,4769 BULLTOWN RD,4769 BULLTOWN RD,MURRYSVILLE,PA,15668,0,89500
CULLEN JAMES,850 RIDGE AVENUE,850 RIDGE Ave,Pittsburgh,PA,15212,0,41204
BOSPHORUS ENTERPRISES INC,500 GALLERIA DR,500 GALLERIA DR,JOHNSTOWN,PA,15904,0,1200917
Philadelphia Marine Trade Association,3001 Front Street,3001 Front St,Phidelphia,PA,19148,0,63462
AKT FITNESS LLC,55 SUGAR RUN RD STE 104,55 SUGAR RUN RD STE 104,WAYNESBURG,PA,15370,0,101961
J V CONVERTING COMPANY INC,3062 MAIN ST,3062 MAIN ST,GREEN LANE,PA,18054,0,613368
Rimer Scott,18 Penn Ave,18 Penn Ave,Lyndora,PA,16045,0,3677
2ND STATE INSURANCE AGENCY INC,311 MAIN ST,311 MAIN ST,IRWIN,PA,15642,0,240782
SALADWORKS LLC,1001 CONSHOHOCKEN STATE RD STE 600,1001 CONSHOHOCKEN STATE RD STE 600,CONSHOHOCKEN,PA,19428,0,1650507
BIACON FAMILY  COMMUNITY SUPPORT SERVICES,4023 CHICHESTER AVENUE,4023 CHICHESTER Ave,GARNET VALLEY,PA,19060,10,2418892
Mayzo Inc,125 N. Main St,125 N Main St,Allentown,PA,18104,0,220050
Bujanowski Inc,440 Monongahela Ave,440 Monongahela Ave,North Charleroi,PA,15022,0,600000
Inspiration Global LLC,1250 HAMPTON HILL CT,1250 HAMPTON HILL CT,HARRISBURG,PA,17111,1,202689
Barn at Walnut Grove Inc,813 Old Route 22,813 Old Rt 22,Lenhartsville,PA,19534,0,130932
NEPA PROPERTY BUYERS LLC,211 N STATE ST,211 N STATE ST,CLARKS SUMMIT,PA,18411,0,84934
MYERS CONSTRUCTION SERVICES LLC,3631 Windsor Drive,3631 Windsor Dr,Bensalem,PA,19020,,73784
JOHN STEWART COMPANY,225 SANDALWOOD DR,225 SANDALWOOD DR,CRANBERRY TOWNSHIP,PA,16066,0,65500
William Kail,2111 N Franklin Dr STE 100,2111 N Franklin Dr STE 100,Washington,PA,15301,0,92091
LABORATORY CORPORATION OF AMERICA       HOLDINGS,1320 PHILADELPHIA PIKE,1320 PHILADELPHIA Pk,WILMINGTON,DE,19809,0,17713417
SBVALLEY INC,2038 Valley Road,2038 Valley Rd,Jenkintown,PA,19046,1,168000
PREMIER POOL RENOVATIONS INC,313 HYDE PARK,313 HYDE PARK,DOYLESTOWN,PA,18902,10,0
STEWART MARY,P.O. Box AH,,,,,,
STATSIG INC,2328 PEROT ST,2328 PEROT ST,PHILADELPHIA,PA,19130,0,120000
CPS INSURANCE SERVICES INC,702 Oak Ln,702 Oak Ln,Plymouth Meeting,PA,19462,1,156848
SOFTGENETICS LLC,100 OAKWOOD AVE STE 350,100 OAKWOOD AVE STE 350,STATE COLLEGE,PA,16803,0,283517
SCHRAMM II INC,800 E VIRGINIA AVE,800 E VIRGINIA AVE,WEST CHESTER,PA,19380,0,654839
BETHEL BAPTIST CHURCH INC,2080 CASTOR AVE,2080 CASTOR AVE,PHILADELPHIA,PA,19134,15,710121
APACHE STUCCO JOHN HATALA III DBA,1239 DUNDAFF ST,1239 DUNDAFF ST,DICKSON CITY,PA,18519,2,50102
LAW OFFICE OF MICHAEL BLAZICK MICHAEL BLAZICK D/B/A,100 ERIE INSURANCE PLACE,100 ERIE INSURANCE PLACE,ERIE,PA,16530,0,38112
Rodeway Inn  Carlisle Shree Sai Siddhi LLC T/A,1239 Harrisburg Pike,1239 Harrisburg Pk,Carlisle,PA,17013,0,76595
SOFTWARE MERCHANT INC,125 West Street,125 W St,Wilmington,DE,19801,1,0
TAS TRUCKING INC,2520 TRENTON AVE,2520 TRENTON AVE,Williamsport,PA,17701,10,607530
Envirocon Inc,NO FIXED ADDRESS,NO FIXED ADDRESS,HARRISBURG,PA,17110,0,80275
Coderrect Inc,Non Specific Location,Non Specific Location,Ambridge,PA,15003,1,200000
MURO JASON,309 Byron Avenue,309 Byron Ave,Altoona,PA,16602,0,17997
Tobacco Lux Chambersburg Inc,1070 Lincoln Way E,1070 Lincoln Way E,Chambersburg,PA,17201,2,70000
Yeager Financial Services Inc,1 W MAIN ST,1 W MAIN ST,TRAPPE,PA,19426,0,164600
BROOKS ASSOCIATES INC,1258 Auburn Avenue,1258 Auburn Ave,Hummelstown,PA,17036,0,178839
BAKE INC,2600 N WILLOW STREET PIKE,2600 N WILLOW St Pk,WILLOW STREET,PA,17584,1,495000
NHL PROPERTY MAINTENANCE LLC,171 COAL BLUFF RD,171 COAL BLUFF RD,FINLEYVILLE,PA,15332,0,135000
Tripoli Wendy,P.O. Box AH,,,,,,
Giselle Robb,1265 Drummers Lane,,,,,,
Middlecreek Township,37 Manor Drive,37 Manor Dr,Kreamer,PA,17833,31,226514
KURA ONCOLOGY INC,214 WINSTON LN,214 WINSTON LN,WEST CHESTER,PA,19382,1,1985197
J S  J ENTERPRISES LLC,1113-B KENNEBEC DRIVE,1113B KENNEBEC Dr,CHAMBERSBURG,PA,17201,0,120000
Annie C Hardway ASL Services,2536 Eastern Blvd 130,2536 Eastern Blvd 130,York,PA,17402,0,614498
FenixCare Counseling Services,48 S 4th St Fl 2,48 S 4th St Fl 2,Reading,PA,19602,3,201600
USC CANTERBURY CORP,101 HERITAGE SHORES CIR,101 HERITAGE SHORES CIR,BRIDGEVILLE,DE,19933,1,0
OWENS  MINOR INC,3401 HARTZDALE DR,3401 HARTZDALE DR,CAMP HILL,PA,17011,0,40655443
CWI INC,1827 COUNTY LINE RD,1827 COUNTY LINE RD,BARTO,PA,19504,2,1532121
Weldbank Energy Corp,3160 CONEWANGO AVE,3160 CONEWANGO AVE,WARREN,PA,16365,0,311748
JL RUTH ELECTRIC INC,4550 LENA DRIVE,4550 LENA Dr,MECHANICSBURG,PA,17055,0,798908
THE HEIGHTS NAILS  SPA INC,100 ERIE INSURANCE PLACE,100 ERIE INSURANCE PLACE,ERIE,PA,16530,0,38000
DIANNE HEADLEY,838 WALKER RD STE 22A,838 WALKER RD STE 22A,DOVER,DE,19904,3,143823
Goldman Properties Philadelphia Inc,121-127 S 13 St,121127 S 13 St,Philadelphia,PA,19107,0,528201
VINCENT HERBST MD,1201 GRAMPIAN BLVD STE 2A,1201 GRAMPIAN BLVD STE 2A,WILLIAMSPORT,PA,17701,0,237637
RELIGIOUS AND CHARITABLE RISK POOLING TRUST OF THE BROTHERS OF THE CHRISTIAN SCHOOLS AND A,9601 GERMANTOWN AVENUE,9601 GERMANTOWN Ave,PHILADELPHIA,PA,19118,0,177387152
THE ROAD TO EXCELLENCE CHILD CARE,247 FOX RUN LN STE 102,247 FOX RUN LN STE 102,EAST STROUDSBURG,PA,18302,0,136698
ALLEGHENY INTERMEDIATE UNIT 3,531 JONES AVENUE,531 JONES Ave,BRADDOCK,PA,15104,0,63000000
Mattic LLC,83 Sumner Ave,83 Sumner Ave,Pittsburgh,PA,15202,0,76613
Ulead LLC,1225 WASHINGTON PIKE STE 301,1225 WASHINGTON Pk STE 301,BRIDGEVILLE,PA,15017,0,23600
PARTNERSHIP FOR CAREER DEVELOPMENT,PO BOX 2361,PO BOX 2361,HARRISBURG,PA,17105,,150000
EXACT PAYROLL INC,3993 HUNTINGTON PIKE STE 110,3993 HUNTINGTON Pk STE 110,HUNTINGDON VALL,PA,19006,0,875218
CALVERT PEARSON INSURANCE     GROUP INC,712 PENNA AVE W,712 PENNA AVE W,WARREN,PA,16365,0,1407377
DB HOME REMODELING SOLUTION CORP,2055 LIMESTONE RD STE 217,2055 LIMESTONE RD STE 217,WILMINGTON,DE,19808,0,192504
FIRST BAPTIST CHURCH OF MANAYUNK,195 GREEN LN,195 GREEN LN,PHILADELPHIA,PA,19127,2,81144
NORTH STAR CONSTRUCTION MANAGEMENT INC,645 HAMILTON ST SUITE 208,645 HAMILTON ST Ste 208,ALLENTOWN,PA,18101,,240000
NAVIGATION SALES AND SERVICE  LLC,ONE STATE FARM DR.,ONE STATE FARM DR,CONCORDVILLE,PA,19339,0,1500
CBIZ INC,1845 WALNUT ST,1845 WALNUT ST,PHILADELPHIA,PA,19103,93,2704713
DOLLAR MUTUAL BANCORP,2000 MASONIC DR,2000 MASONIC DR,SEWICKLEY,PA,15143,0,0
JD Arnold Home Care Inc,3000 Valley Forge Circle #3300,3000 Valley Forge Cir 3300,King Of Prussia,PA,19406,0,185000
CLOUDY RESOURCES LLC,VARIOUS LOCATIONS,VARIOUS LOCATIONS,DOVER,DE,19901,0,0
ROSS RESTAURANT ENTERPRISES LLC,18 N RAILROAD ST,18 N RAILROAD ST,TAMAQUA,PA,18252,0,317966
ALTMAN MANAGEMENT COMPANY LLC WALDON MAINTENANCE COMPANY,121-123 West Tulpehocken Street,121123 W Tulpehocken St,Philadelphia,PA,19144,2,14763251
YOUNGBLOOD GROUP LIMITED LP,7911 OGONTZ AVE,7911 OGONTZ AVE,PHILADELPHIA,PA,19150,40,3454545
CORRY LASER TECHNOLOGY INC,1530 ENTERPRISE RD,1530 ENTERPRISE RD,ERIE,PA,16407,0,434152
MOODUCK BREWERY LLC,79 S WILSON AVE,79 S WILSON AVE,ELIZABETHTOWN,PA,17022,0,40000
A DUIE PYLE INC,2 TABAS LANE,2 TABAS Ln,EXTON,PA,19341,2,2860776
MORAVIAN UNIVERSITY,1140 MAIN ST,1140 MAIN ST,BETHLEHEM,PA,18018,0,118714863
MILLERS RECONDITIONING SHOP   MICHAEL M MILLER D/B/A,14 LINE ST,14 LINE ST,POTTSVILLE,PA,17901,0,80008
ABDUL MAJIB SHELTON,c/o NEPA Center for Independent Liv 1142 Sanderson Ave,,,,,,
THREE B LLC,639 EDISON HEIGHTS RD,639 EDISON HEIGHTS RD,SUNBURY,PA,17801,0,47332
HOPEPHL,3909 HAVERFORD AVE,3909 HAVERFORD AVE,PHILADELPHIA,PA,19104,0,7720544
OUTFRONT MEDIA INC,ATTN:COU,,,,,,
CRESCI CONSTRUCTION LLC,25 Race Avenue PO Box 83777,25 Race Ave PO Box 83777,Lancaster,PA,17608,0,50000
THE GALLOWAY GROUP INC,161 CIRILLO CIRCLE,,,,,,
THE PARLOUR 33,360 N BROAD ST,360 N BROAD ST,DOYLESTOWN,PA,18901,0,364183
SALADWORKS LLC,95 E GERMANTOWN PIKE,95 E GERMANTOWN Pk,EAST NORRITON,PA,19401,0,1650507
BARNES  NOBLE EDUCATION INC,2461 N 54TH ST,2461 N 54TH ST,PHILADELPHIA,PA,19131,0,594911
Shillington Family Laundromat LLC,P.O. Box 230,PO Box 230,Phoenixville,PA,19460,0,10000
WIDEORBIT LLC,1295 BOBARN DR,1295 BOBARN DR,PENN VALLEY,PA,19072,3,1036467
AARON ZIMMERMANS PAINTING     COMPANY INC,95 ALPINE RD,95 ALPINE RD,LEWISBERRY,PA,17339,0,123694
PAGAN RAQUEL,850 RIDGE AVENUE,850 RIDGE Ave,Pittsburgh,PA,15122,0,42544
T2 INDUSTRIES LLC,1831 DELAWARE AVE,1831 DELAWARE AVE,WILMINGTON,DE,19806,0,53186
RUTHRAUFF SAUER LLC,400 LOCUST ST,400 LOCUST ST,MC KEES ROCKS,PA,15136,0,0
NEW HOPE MOBIL INC,305 W BRIDGE ST,305 W BRIDGE ST,NEW HOPE,PA,18938,0,153200
LIGHTY EVA,P.O. Box AH,,,,,,
NEW FREEDOM BAPTIST CHURCH,PO BOX 157,PO BOX 157,NEW FREEDOM,PA,17349,1,83475
GREAT DAY IMPROVEMENTS LLC,611 PARKWAY VIEW DRIVE #6,611 Pkwy VIEW Dr 6,PITTSBURGH,PA,15205,0,10367890
DAIRYLAND LABORATORIES INC,1817 OLDE HOMESTEAD LN STE 206,1817 OLDE HOMESTEAD LN STE 206,LANCASTER,PA,17601,3,165240
SAVE PHILLY STORES II LLC,PO BOX 797,PO BOX 797,ARDMORE,PA,19003,1,2827560
LaKirk LLC,452 East St,452 E St,Bloomsburg,PA,17815,0,180000
Diocese of Wilmington,2099 S. DuPont Highway,2099 S DuPont Hwy,Dover,DE,19901,0,48415556
B Titus Rutt Agency Inc,PO Box 357,PO Box 357,Mount Joy,PA,17552,0,286400
PICKING TREECE BENNETT MORTUARY INC,PO BOX 69,PO BOX 69,JOHNSTOWN,PA,15907,0,121530
United Athletics Tumbling and Youth Fitness LLC,212 S Queen St,,,,,,
MICHAEL S BYNUM,1533 RAINER RD,1533 RAINER RD,BROOKHAVEN,PA,19015,0,94999
DUSHORE HARDWARE LLC,206 S GERMAN ST,206 S GERMAN ST,DUSHORE,PA,18614,0,20000
J K R Prolift LLC,222 N Depot St.,222 N Depot St,Mount Pleasant,PA,15666,4,530068
LRH INNOVATIONS LLC,1191 CONNELLSVILLE ST,1191 CONNELLSVILLE ST,LEMONT FURNACE,PA,15456,0,100000
AESLING CORP,1608 BROWNSVILLE RD,1608 BROWNSVILLE RD,FSTRVL TRVOSE,PA,19053,28,3066578
SMT DBA 216 S MAIN STREET  CAR SOURCE,216 S MAIN ST,216 S MAIN ST,DOYLESTOWN,PA,18901,0,491671
DERRS CHRISTIAN CHURCH,N CORNER OF INTER OF 4030     4039  4037  19062,N CORNER OF INTER OF 4030   4039 4037 19062,DERRS,PA,17814,0,28875
DARLEY DALE HORSE PARK,440 W GREENE ST,440 W GREENE ST,CARMICHAELS,PA,15320,0,85634
Rams Hotel Group LLC,310 NORTH CENTRAL AVENUE,310 N CENTRAL Ave,LAUREL,DE,19956,0,205400
VISTABLOCK LLC,3399 JETSTAR DR,3399 JETSTAR DR,LITITZ,PA,17543,0,40000
WAWA INC,3328 BRISTOL & GALLOWAY RDS,3328 BRISTOL & GALLOWAY RDS,CORNWELL HEIGHTS,PA,19020,0,535043207
AS SEEN ON TV PARK LLC,160 N GULPH RD. STE 2025,160 N GULPH RD STE 2025,KING OF PRUSSIA,PA,19406,2,40972
LEIDY CONSTRUCTION INC,100 ERIE INSURANCE PLACE,100 ERIE INSURANCE PLACE,ERIE,PA,16530,0,24462
Unified Fields Inc,P.O. Box AH,,,,,,
PREVENTION POINT PITTSBURGH,Hill District Van Site,,,,,,
DIAMOND JUBILEE MEMORIAL,1195 RIVER RDPO BOX 302,1195 RIVER RDPO BOX 302,MARIETTA,PA,17547,0,77762
MID STATE CONCRETE LLC,612 W WINTER RD,612 W WINTER RD,LOGANTON,PA,17747,0,108348
Landhope Corporation,101 E Street Rd,101 E St Rd,Kennett Square,PA,19348,0,2904103
TOWNADA PUBLIC LIBRARY,104 MAIN ST,104 MAIN ST,TOWANDA,PA,18848,0,81602
VAVALA CONCRETE CONSTRUCTION LLC,2059 W 20TH ST,2059 W 20TH ST,ERIE,PA,16502,0,674342
BECK ADJUSTING AND CONSULTING LLC,6042 MARK CIR,6042 MARK CIR,BENSALEM,PA,19020,0,192404
SPEARTIP LLC,1307 N 52ND ST APT 2,1307 N 52ND ST APT 2,PHILADELPHIA,PA,19131,0,18664
Paul J Adams DMD PC,25 Race Avenue PO Box 83777,25 Race Ave PO Box 83777,Lancaster,PA,17608,0,306017
JP Kirchart Landscaping LLC,976 ARINGA WAY,976 ARINGA WAY,AVONDALE,PA,19311,0,41900
Brownsville Township,232 Brown Street,232 Brown St,Brownsville,PA,15417,6,11328
MOSS DANA,850 RIDGE AVENUE,850 RIDGE Ave,Pittsburgh,PA,15212,0,17037
PHOCAS INC,1934 PIERCE ST,1934 PIERCE ST,PHILADELPHIA,PA,19145,0,455401
STYLES ON CHOCOLATE INC,1105 BERKSHIRE BLVD,1105 BERKSHIRE BLVD,WYOMISSING,PA,19610,0,298039
B C LANDSCAPING               JEREMY CLARK D/B/A,5560 SHESHEQUIN RD,5560 SHESHEQUIN RD,ULSTER,PA,18850,0,36800
KARDAMBIKIS INC DBA BILLS SANDWICH SHOP,2315 Wilmington Rd,2315 Wilmington Rd,New Castle,PA,16105,0,176693
ARMSTRONG WORLD INDUSTRIES INC,1067 DILLERVILLE RD,1067 DILLERVILLE RD,LANCASTER,PA,17603,0,158295993
OK Construction  Contracting LLC,P.O. Box AH,,,,,,
CHERY HILL GROUP LLC,315 SCHOOL HOUSE ROAD,315 SCHOOL HOUSE Rd,TUNKHANNOCK,PA,18657,0,293247
SERCO INC,700 ROBBINS AVE,700 ROBBINS AVE,PHILADELPHIA,PA,19111,4,26716890
Gibble Construction Inc,PO BOX 1027,PO BOX 1027,GREENSBURG,PA,15601,0,2468
Boccella Precast LLC,No Specific Location,No Specific Location,Arden,DE,19810,0,0
Boswell Antionette,P.O. Box AH,,,,,,
SMITH HVAC LLC,223 N SYCAMORE ST,223 N SYCAMORE ST,NEWTOWN,PA,18940,,344740
HORIZON SPINE  PAIN,6433 INTERLAKEN DR,6433 INTERLAKEN DR,MCDONALD,PA,15057,0,85000
DAVIS LANDSCAPE LTD,2555 KINGSTON RD STE 100,2555 KINGSTON RD STE 100,YORK,PA,17402,0,7319074
PENNSYLVANIA HARDWOODS CO,132 MAIN STREET,,,,,,
LORCH ENTERPRISES LLC,PO BOX 449,PO BOX 449,INDIANA,PA,15701,0,90503
MARKET SHARE CONSULTING LLC,1444 E LACKAWANNA ST STE 22,1444 E LACKAWANNA ST STE 22,OLYPHANT,PA,18447,0,115000
Magann Family Dentistry,1857 William Penn Way P.O. Box 11600,1857 William Penn Way PO Box 11600,Lancaster,PA,17605,0,182849
BERNHARD BUS SERVICES LLC     BERNHARD VEHICLE MOBILITY LLC,1792 RT 100,1792 RT 100,BALLY,PA,19503,0,170200
Red Rabbit LLC,1330 Rhawn St,1330 Rhawn St,Philadelphia,PA,19111,0,512519
BURGETTSTOWN COMMUNITY LIBRARY,2 KERR ST,2 KERR ST,BURGETTSTOWN,PA,15021,0,112777
AA CARPENTERS INC,335 MAIN ST,335 MAIN ST,DENVER,PA,17517,0,38788
CT MEDICAL ASSOCIATES,850 WEST CHESTER PIKE,850 W CHESTER Pk,HAVERTOWN,PA,19083,,71964
MATTRESS FIRM GROUP INC,6416 CARLISLE PIKE,6416 CARLISLE Pk,MECHANICSBURG,PA,17050,2,5592048
KNIGHT MOTORS LP,1470 West Liberty Ave,1470 W Liberty Ave,Pittsburgh,PA,15226,,0
AMEDISYS INC,100 STOOPS DR STE 300,100 STOOPS DR STE 300,MONONGAHELA,PA,15063,10,26554647
SPARC GROUP HOLDINGS LLC,124 OUTLET SQUARE,124 OUTLET Sq,HERSHEY,PA,17033,15,1502119
B NEE HOME RENOVATIONS,1280 12TH AVE,1280 12TH AVE,NATRONA HEIGHTS,PA,15065,0,245924
1 HEART HOME HEALTH CARE LLC,6611 FRANKFORD AVE STE 1,6611 FRANKFORD AVE STE 1,PHILADELPHIA,PA,19135,71,5985000
Williams Crane Service Inc,No Specific Location,No Specific Location,Harrisburg,PA,17025,0,0
ELDER PAWS PET SITTING LLC,120 MILBURY RD,120 MILBURY RD,COATESVILLE,PA,19320,0,62660
R Scott Bivighouse,165 Clay Ridge Rd,165 Clay Ridge Rd,Ottsville,PA,18942,0,523542
F G Galassi Moulding Co Inc,7 North Lane,7 N Ln,Lititz,PA,17543,0,339193
INSTALLED BUILDING PRODUCTS INC,835 ENTERPRISE STREET,835 ENTERPRISE St,DICKSON,PA,18519,0,30223089
Trolley Ramen Inc,2101 Tyson Ave,,,,,,
AUDIO VISUAL SOLUTIONS INC,100 ERIE INSURANCE PLACE,100 ERIE INSURANCE PLACE,ERIE,PA,16530,0,75000
VALLEY OUTDOOR SERVICE,2363 JUNCTION RD,2363 JUNCTION RD,SEVEN VALLEYS,PA,17360,0,33691
SOVEREIGN DISTRIBUTORS INC,2343 E LINCOLN HWY,2343 E LINCOLN HWY,LANGHORNE,PA,19047,0,1542617
QUE CHULA ES PUEBLA RESTAURANT INC,1356 N 2ND ST,1356 N 2ND ST,PHILADELPHIA,PA,19122,6,547554
TRAFFIC CONTROL EQUIPMENT AND SUPPLIES INC,979 STATE ROUTE 917,979 STATE Rt 917,BENTLEYVILLE,PA,15314,15,1336912
BISANZ AGENCIES LLC,1100 GRANITE DR,1100 GRANITE DR,MEDIA,PA,19063,0,214819
Boulos Parking Inc,108 First Ave112 Blvd of the Allies,108 First Ave112 Blvd of the Allies,Pittsburgh,PA,15222,0,110812
Bucks County Conference  Visitors Bureau Inc,3207 Street Rd,3207 St Rd,Bensalem,PA,19020,0,1027158
Univest Financial Corporation,1 Fitzwatertown Rd,1 Fitzwatertown Rd,Willow Grove,PA,19090,4,98840052
BAYADA HOME HEALTH CARE INC,1016 N WALNUT ST,1016 N WALNUT ST,MILFORD,DE,19963,129,189845925
Luther Lanard PC,2146 QUARRY RD,2146 QUARRY RD,LEBANON,PA,17046,0,170854
FRAZIER JANET,850 RIDGE AVENUE,850 RIDGE Ave,Pittsburgh,PA,15122,0,260868
KC REFRIGERATION LLC,337 N 9TH STREET,337 N 9TH St,PHILADELPHIA,PA,19107,0,0
TITAN CONSTRUCTION INC TITAN NORTH AMERICA INC,7460 Lancaster Pike Ste 7,7460 Lancaster Pk Ste 7,Hockessin,DE,19707,5,359996
HYPERFUZE LLC,947 KURTZ MILL RD,947 KURTZ MILL RD,MOHNTON,PA,19540,0,100000
BUCHMANDOR LLC                DBA SLATE CAFE,43 E MAIN ST,43 E MAIN ST,LITITZ,PA,17543,0,40000
EDMONTA ENTERPRISE,2516 WASHINGTON RD,2516 WASHINGTON RD,UPPER ST CLAIR,PA,15241,0,51632
ADP TOTALSOURCE FL XVII INC L/C/F TFG PARTNERS LLC,437 GRANT STREET,,,,,,
BEATRICE PITCAIRN,165 Township Line Rd,,,,,,
U Manage Holding Company,7520 Peach Street Suite 101,7520 Peach St Ste 101,Erie,PA,16509,0,3738045
EPIC TECH GROUP INC,446 Germantown Pike Po Box 338,446 Germantown Pk Po Box 338,Lafayette Hill,PA,19444,2,240000
DUGGAN  MARCON INC,69 PARRY STREET,69 PARRY St,LUZERENE,PA,18709,1,0
TRUCKCRAFT CORP INC,5751 MOLLY PITCHER HWY,5751 MOLLY PITCHER HWY,CHAMBERSBURG,PA,17201,0,810755
EAST SHORE BAPTIST CHURCH,6721 JONESTOWN RD,6721 JONESTOWN RD,HARRISBURG,PA,17112,5,584508
STAFFPAY LLC,2204 W LINCOLN BLVD,2204 W LINCOLN BLVD,ELIZABETH,PA,15037,1,125842
BRIGHTVIEW LANDSCAPES LLC,131 S SHIP RD,131 S SHIP RD,EXTON,PA,19341,0,83628354
NEWMOYER GEOSPATIAL SOLUTIONS LLC,STATE OF PA,STATE OF PA,,PA,,1,93139
THE U COMPANY LLC,1 PPG PL 10TH FL,1 PPG PL 10TH FL,PITTSBURGH,PA,15222,0,0
BANGOR STEEL ERECTORS INC,600 GRANT STREET US STEEL,,,,,,
DATTILOS ITALIAN,1078 YORK RD,1078 YORK RD,WARMINSTER,PA,18974,0,69340
ORIGINAL BROTHERS PIZZA AND RE,201 W OLIVE ST,201 W OLIVE ST,SNOW SHOE,PA,16874,8,543043
BEACHWOOD INC,NO PHYSICAL LOCATION,NO PHYSICAL LOCATION,DOVER,DE,19901,0,0
CHESTER COUNTY DOG WALKERS INC,2934 CONESTOGA RD,2934 CONESTOGA RD,GLENMOORE,PA,19343,6,337340
NORTHERN COUNTRY DENTAL LTD,9 N. MAIN ST.,9 N MAIN ST,PITTSTON,PA,18640,0,568213
THE TJX COMPANIES INC,200 CONCOURSE BLVD,200 CONCOURSE BLVD,DRESHER,PA,19025,0,19596705
MAGNA INFOTECH LTD,37 MCMURRAY RD STE 117,37 MCMURRAY RD STE 117,PITTSBURGH,PA,15241,0,313440
GEORGE KRAPF JR  SONS INC,SEARS BLVD SEARS LOT,SEARS BLVD SEARS LOT,WILMINGTON,DE,19804,0,4183381
Retorra LLC,2485 Yellow Springs Road Ste 4,2485 Yellow Springs Rd Ste 4,Malvern,PA,19355,0,148200
INDIANA COUNTY TOURIST BUREAU,2334 OAKLAND AVE SUITE 68,2334 OAKLAND AVE Ste 68,INDIANA,PA,15701,0,137900
SCRATCH MY ITCH LLC,5074 W Library Ave Ste 200,5074 W Library Ave Ste 200,Bethel Park,PA,15102,,71213
LEO J COLARASSI OD           KIM J KOZA OD,3820 WALNUT ST,3820 WALNUT ST,HARRISBURG,PA,17109,0,97000
BAYARD DIANA,93 OAK AVE,93 OAK AVE,REHOBOTH BEACH,DE,19971,0,1
Mary Jo Long,127 East Chestnut Street,127 E Chestnut St,West Chester,PA,19380,0,67342
AMERICAN DENTAL CARE PC,187 EAST CITY LINE AVE,187 E CITY LINE AVE,BALA CYNWYD,PA,19004,0,29688048
UNITED REFRIGERATION INC,1035 WHEELER WAY,1035 WHEELER WAY,LANGHORNE,PA,19047,12,45551354
FUREVER HOME ADOPTION CENTER,5984 MAIN ST,5984 MAIN ST,E PETERSBURG,PA,17520,0,19836
DOLLAR TREE INC,817 E BALTIMORE PIKE.SUITE D,817 E BALTIMORE PkSte D,KENNETT SQUARE,PA,19348,12,13608629
ADP TOTALSOURCE DE IV INC L/C/F SENTINEL OFFENDER SERVICES LLC,1401 ARCH STREET,1401 ARCH St,PHILADELPHIA,PA,19102,2,50000
William Bailey,61 Corporate Circle,61 Corporate Cir,New Castle,DE,19720,0,1
J Van Body Inc,203B East Bellevue Ave,,,,,,
COCHRAN LANDSCAPE  EXCAVATIONSOLOMON COCHRAN D/B/A,195 OLD ROUTE 217,195 OLD Rt 217,DERRY,PA,15627,0,1000
WOODBRIDGE CONDOMINIUM ASSOC,200 COMMERCE DRIVE STE 206,200 COMMERCE Dr STE 206,MOON TOWNSHIP,PA,15108,0,131300
COYNEX INC,1621 POTATO VALLEY RD,1621 POTATO VALLEY RD,HARRISBURG,PA,17112,5,71531
FLOORING SOLUTIONS            BY HOUPT LLC,614 S FRANKLIN AVE STE 202,614 S FRANKLIN AVE STE 202,SOMERSET,PA,15501,0,216928
MORRIS COUPLING COMPANY,2240 W 15TH ST,2240 W 15TH ST,ERIE,PA,16505,1,113000
COMMISSION ON ACCREDITATION OF,23 OAK HILL CIR,23 OAK HILL CIR,MALVERN,PA,19355,1,485106
BATH  BODY WORKS INC,741 SUMMIT RIDGE PLAZA,741 SUMMIT RIDGE Plz,MOUNT PLEASANT,PA,15666,26,41107334
SOMA ENTERPRISES LLC,1002 BUFFALO ST,1002 BUFFALO ST,FRANKLIN,PA,16323,0,74305
OFRIA LLC,1000 GERMANTOWN PIKE STE K3,1000 GERMANTOWN Pk STE K3,PLYMOUTH MEETING,PA,19462,0,789272
GENE TUNNEY DENTISTRY PLLC,920 N NEW STREET,920 N NEW St,BETHLEHEM,PA,18018,8,350000
GEISINGER HEALTH,166 HANOVER ST.,166 HANOVER ST,WILKESBARRE,PA,18702,8,2532858
CALTAGARONE EQUIPMENT SERVICES LLC,676 Fire Tower Rd,676 Fire Tower Rd,Reynoldsville,PA,15851,,5400
RIEHL CARPENTRY LLC,48 QUEEN RD STE 7,48 QUEEN RD STE 7,GORDONVILLE,PA,17529,0,62308
Jennings Lorraine,620 COAL ST UNIT B101,620 COAL ST UNIT B101,Easton,PA,18042,0,36292
R  D STRATEGIC SOLUTIONS LLC,39 MONTGOMERY DR,39 MONTGOMERY DR,HARLEYSVILLE,PA,19438,0,5815
GREENLEAF ACCOUNTING SERVICES,225 MAIN ST E,225 MAIN ST E,GIRARD,PA,16417,0,34050
FARMERS TABLE CAFE LLC,100 ERIE INSURANCE PLACE,100 ERIE INSURANCE PLACE,ERIE,PA,16530,0,110000
FIVE BELOW INC,2250 S. COLUMBUS BLVD,2250 S COLUMBUS BLVD,PHILADELPHIA,PA,19148,15,71283036
POINT SPRING COMPANY,7307 Grand Avenue,7307 Grand Ave,Pittsburgh,PA,15225,0,6867806
IT EDGE INC,1157 PHOENIXVILLE PIKE STE 101,1157 PHOENIXVILLE Pk STE 101,WEST CHESTER,PA,19380,17,12106648
R AND C ELECTRIC INC RONALD C ANDERSON DBA,311 WINDY HILL RD,311 WINDY HILL RD,DUNCANNON,PA,17020,1,20000
ARIANE SYSTEMS NORTH AMERICA INC,109 PHEASANT RUN,109 PHEASANT RUN,NEWTOWN,PA,18940,0,0
Housing In Transition Inc,480 OAK HILL DR,480 OAK HILL DR,PITTSBURGH,PA,15213,1,58000
PONDEROSA GOLFLAND CORP,100 ERIE INSURANCE PLACE,100 ERIE INSURANCE PLACE,ERIE,PA,16530,0,380156
Cross Bar Farm LLC,3366 Limestone Road,3366 Limestone Rd,Cochranville,PA,19330,2,12000
SCHUYLER BROKERAGE CORP,RTE 706,RTE 706,MONTROSE,PA,18801,0,0
HOFFMAN BROS PLUMBING        HEATING INC,320 ABINGTON DR STE 6,320 ABINGTON DR STE 6,WYOMISSING,PA,19610,0,239500
FOGLIA INSURANCE INC,1200 BUSTLETON PIKE,1200 BUSTLETON Pk,FSTRVL TRVOSE,PA,19053,3,223759
BPW MEDICAL ASSOCIATES PC,463 BRUSH RUN RD,463 BRUSH RUN RD,GREENSBURG,PA,15601,1,13238658
PROMOTIONAL PRODUCTS,1502 3RD AVE APT 2,1502 3RD AVE APT 2,DUNCANSVILLE,PA,16635,1,382000
ULTIMATE TOURNAMENT,3411 SILVERSIDE RD STE 104,3411 SILVERSIDE RD STE 104,WILMINGTON,DE,19810,0,83000
CADWELL LABORATORIES INC,505 BICKER ROAD,505 BICKER Rd,CABOT,PA,16023,0,560194
CAPRIG LLC                   DBA GALLERY PIZZA ITALIANO,203 E HIGHLAND AVE,203 E HIGHLAND AVE,NEWPORT,DE,19804,1,80000
RMA WASHES INC AND RMA REALTY LLC DBA WIZARD CAR WASHES,301 AUTUMN DR,301 AUTUMN DR,MOSCOW,PA,18444,,195456
KEYSTONE INTEGRITY  PROTECTION INC,730 PARKWOOD DR STE 100,730 PARKWOOD DR STE 100,CRANBERRY TOWNS,PA,16066,2,92200
THOMPSONS CANDLE COMPANY INC JOHN P  ANGELA D THOMPSON,316-317 Penn St,316317 Penn St,Huntingdon,PA,16652,0,1005488
HIRST BARRY,850 RIDGE AVENUE,850 RIDGE Ave,Pittsburgh,PA,15212,0,18062
BELLA BODY SERVICES INC,734 STONY HILL RD 2ND FLOOR,734 STONY HILL RD 2ND FLOOR,YARDLEY,PA,19067,0,760452
VERDERAME ELECTRIC INC,1100 MERCER DR,1100 MERCER DR,LOCK HAVEN,PA,17745,0,54588
SCHROEDER ENGINEERING INC,721 SURFSIDE DR,721 SURFSIDE DR,PITTSBURGH,PA,15239,0,51700
MCGREGOR INDUSTRIES INC,SPHERENY CCIP MIDWOOD SO 12TH PROJ 210 SOUTH 12TH STREET,SPHERENY CCIP MIDWOOD SO 12TH PROJ 210 S 12TH St,PHILADELPHIA,PA,19107,10,152006
FRANCHISE GROUP INC,2383 COTTMAN AVE,2383 COTTMAN AVE,PHILADELPHIA,PA,19149,0,40600880
OLIVER FLOWER SHOP INC,701 RODI ROAD SUITE 100,701 RODI Rd Ste 100,PITTSBURGH,PA,15235,0,194934
YANG MAI,2706 S PARK RD,2706 S PARK RD,BETHEL PARK,PA,15102,0,794984
RITE AID CORPORATION,1941 DERRY STREET,1941 DERRY St,HARRISBURG,PA,17104,17,392746643
GO REENTRY SPECIALISTS,PO BOX 911,PO BOX 911,BELLEVILLE,PA,17004,0,216000
BALTAZAR CONSTRUCTION LLC,65 N DUPONT HWY,65 N DUPONT HWY,DOVER,DE,19901,0,12920
AYAHOUDA LLC,291 W MOORESTOWN RD,291 W MOORESTOWN RD,NAZARETH,PA,18064,0,20000
OEP GLASS TOPCO INC,1039 COLUMBUS AVE,1039 COLUMBUS AVE,LEMOYNE,PA,17043,7,6151215
PETERS TWP AUTO SERVICES      GEORGE HUTCHINSON D/B/A,3550 WASHINGTON RD,3550 WASHINGTON RD,CANONSBURG,PA,15317,0,17040
Requipment Company Inc,201 E Strawberry Ave,201 E Strawberry Ave,Mechanicsburg,PA,17055,2,38160
PARKER BROTHERS WELL DRILLING,6075 E STATE ST,6075 E STATE ST,HERMITAGE,PA,16148,0,541330
PERELLA BUILDING              CONTRACTORS LLC,102 PENNSYLVANIA AVE,102 PENNSYLVANIA AVE,MORRISVILLE,PA,19067,0,60000
WELLS FARGO  COMPANY,650 CORPORATION ST,650 CORPORATION ST,BEAVER,PA,15009,0,204368080
KABOBURRITOS LLC,148 W STATE ST,148 W STATE ST,KENNETT SQUARE,PA,19348,0,70668
DELRI INDUSTRIAL SUPPLIES INC,PO BOX 143,PO BOX 143,WOODLYN,PA,19094,0,277476
SAGBAILCELA FLOORING SERVICES LLC,3305 SHEFFIELD AVE,3305 SHEFFIELD AVE,PHILA,PA,19136,0,546
PUSATERI MARINA,120 W MAIN ST,120 W MAIN ST,MILLHEIM,PA,16854,0,66181
CS CLEANING SOLUTIONS LLC,1692 GISH RD,1692 GISH RD,MANHEIM,PA,17545,0,116266
Keystone Transport Services LLC,650 Houtztown Rd,650 Houtztown Rd,Myerstown,PA,17067,12,0
UNITARIAN UNIVERSALIST OF THE CUMBERLAND VALLEY,PO BOX 207,PO BOX 207,BOILING SPRINGS,PA,17007,0,135833
BLUE STRIPE BREWING LLC,2022 AXEMANN RD,2022 AXEMANN RD,BELLEFONTE,PA,16823,12,375698
AMC SETTLEMENT SERVICES LLC,345 ROUSER RD,345 ROUSER RD,CORAOPOLIS,PA,15108,0,2255707
JILL A JACK INSURANCE AGENCY  INC,210 S MARKET ST STE 2,210 S MARKET ST STE 2,NEW WILMINGTON,PA,16142,1,256302
NEW KENSINGTON COMM DEV CORP,2771 RUTH STREET,,,,,,
Jessica Love Design,137 Montchan Dr,137 Montchan Dr,Greenville,DE,19807,1,133900
Saylor Charles R,1496 Lititz Pike,1496 Lititz Pk,Lancaster,PA,17601,0,94800
GLAZING DYNAMICS INC,150 S WARNER RD STE 420,150 S WARNER RD STE 420,KING OF PRUSSIA,PA,19406,0,109558
MILAN LASER COLORADO PLLC,7720 CITY LINE AVE STE 19,7720 CITY LINE AVE STE 19,PHILADELPHIA,PA,19151,0,12972024
BROTHERS ELECTRIC,44 REAR W MARKET STREET,44 REAR W MARKET St,WILKES BARRE,PA,18701,0,47008
TUCCI ELIZABETH,9305 BANES ST,9305 BANES ST,PHILADELPHIA,PA,19115,0,17000
FEAST YOUR EYES INC,1750 N FRONT ST,1750 N FRONT ST,PHILADELPHIA,PA,19122,0,2423697
NORTHEAST EYE SPECIALISTS PC,46 Public Square,,,,,,
MCDONALDS CORPORATION,2821 E COLLEGE AVE,2821 E COLLEGE AVE,STATE COLLEGE,PA,16801,0,759429
SevenShopper Inc,3 Germay Drive ste 4,3 Germay Dr ste 4,Wilmington,DE,19804,0,639629
XENERGY LLC,REMOTE,REMOTE,DOVER,DE,19901,0,2238878
WELLS TOWNSHIP,100 ERIE INSURANCE PLACE,100 ERIE INSURANCE PLACE,ERIE,PA,16530,0,168047
ROCKY RIDGE ENTERPRISES LLC,5406 LINCOLN HWY EAST          PO BOX 189,5406 LINCOLN HWY E     PO BOX 189,GAP,PA,17527,,213000
R H TECHNICAL LLC,110 BLACKHAWK ROAD,110 BLACKHAWK Rd,BEAVER FALLS,PA,15010,0,369635
HAWK GUNNING CLUB,1940 CARLISLE RD,1940 CARLISLE RD,YORK,PA,17408,0,1250000
IB ABEL INC,TOMHICKEN RD,TOMHICKEN RD,SUGARLOAF,PA,18249,12,100000
KYNE PLUMBING HEATING  AIR   CONDITIONING INC,PO BOX 493,PO BOX 493,NEWTOWN SQUARE,PA,19073,0,155385
JOHN A NAPOLI,1587 MCDANIEL DRIVE,1587 MCDANIEL Dr,WEST CHESTER,PA,19380,0,99918
DESIGN TRENDS INC,321 BUFORD AVE,321 BUFORD AVE,GETTYSBURG,PA,17325,0,24000
PECK ZERICO,P.O. Box AH,,,,,,
HARBOLDS RV SALES  SERVICE,100 ERIE INSURANCE PLACE,100 ERIE INSURANCE PLACE,ERIE,PA,16530,0,253959
2528 Willbrook Inc,3386 Chichester Avenu,3386 Chichester Avenu,Boothwyn,PA,19061,2,29579
Graces Braces PC,1116 Kennebec Drive,1116 Kennebec Dr,Chambersburg,PA,17055,0,196000
SCHRACK REALTY LLC,615 WASHINGTON ST,615 WASHINGTON ST,HUNTINGDON,PA,16652,0,129069
FRANKLIN WAR VETS INC         JESSE GREER POST 1835,411-421 9TH ST,411421 9TH ST,FRANKLIN,PA,16323,0,169487
FAST APPLIANCE REPAIR INC,145 LAKE DRIVE,145 LAKE Dr,FELTON,DE,19943,3,105000
Toy Handyman Services and Construction LLC,41 Highland Dr,41 Highland Dr,Telford,PA,18969,1,96563
CGMP VALIDATION LLC,VARIOUS LOCATIONS,VARIOUS LOCATIONS,PITTSBURGH,PA,15122,0,0
DJS PAINTING OF WILLIAMSPORT,685 US HIGHWAY 15,685 US Hwy 15,WILLIAMSPORT,PA,17702,0,20000
LOUIES LAUNDROMATS INC,202 HICKORY KNOLL,202 HICKORY KNOLL,SLIPPERY ROCK,PA,16057,6,58000
WILD ASAPH OUTFITTERS INC,100 ERIE INSURANCE PLACE,100 ERIE INSURANCE PLACE,ERIE,PA,16530,0,30000
Dorothy Petrancosta,148 SKYLARK DR,148 SKYLARK DR,GLENSHAW,PA,15116,0,37521
HARRY A POOLE SR CONTR INC,100 ERIE INSURANCE PLACE,100 ERIE INSURANCE PLACE,ERIE,PA,16530,0,103690
AMERICAN IRON  METAL USA  INC,1431 EAST  AVENUE,1431 E Ave,ERIE,PA,16503,0,2598513
PROVIDENCE TOWNSHIP BOARD OF SUPERVISORS,200 MOUNT AIRY RD,200 MOUNT AIRY RD,NEW PROVIDNCE,PA,17560,0,435536
ROSSIS TIRE AND AUTO SERVICE,291 E TOWNSHIP LINE RD LYNNE BLVD & TOWNSHIP LINE RD,291 E TOWNSHIP LINE RD LYNNE BLVD & TOWNSHIP LINE RD,UPPER DARBY,PA,19082,0,98701
HOBBS AND COMPANY INC,1012 MEETINGHOUSE ROAD,1012 MEETINGHOUSE Rd,BOOTHWYN,PA,19061,0,873776
GREENLANE SEARCH MARKETING LLC,1016 W 8TH AVENUE SUITE A,1016 W 8TH Ave Ste A,KING OF PRUSSIA,PA,19406,0,1262700
MARTINS STEEL FABRICATION INC,3454 PLEASANTVUE DRIVE,3454 PLEASANTVUE Dr,PITTSBURGH,PA,15227,0,0
MCCREA HEATING AND AIR CONDITIONING SERVICES OF MARYLAND LLC,2787 DOZER LN,2787 DOZER LN,HARBESON,DE,19951,0,303300
MOTIVE SPORTS AND PHYSICAL THERAPY LLC,101 LINDENWOOD DR,,,,,,
North Penn Comprehensive Health Services Inc,416 South Main Street,416 S Main St,Mansfield,PA,16933,0,14025360
BENEFIT WATCH,164 S MAIN ST,164 S MAIN ST,MORRISVILLE,PA,19067,0,379423
KINDERHOOK EARLY LEARNING CENTER LLC,46 Public Square,,,,,,
CENTER FOR ORTHOPEDIC AND RESEARCH EXCELLENCE INC,501 W MACDADE BLVD,501 W MACDADE BLVD,FOLSOM,PA,19033,0,135502
LORAH AND HELMS INC,935 W PENN AVE,935 W PENN AVE,ROBESONIA,PA,19551,4,64548
DAntonios Auto Body Inc,P.O. Box AH,,,,,,
DUFFERS DRIVING RANGE         VENANGO GOLF LLC D/B/A,622 MITCHELL AVE,622 MITCHELL AVE,OIL CITY,PA,16301,0,10000
JOSEPH VIRBITSKY JERMYN SUPPLY,PO BOX 223,PO BOX 223,JERMYN,PA,18433,2,225355
THE WILLETT GROUP LLC,506 JUNIPER ST,506 JUNIPER ST,WARMINSTER,PA,18974,0,112424
PERRY FAMILY CHIROPRACTIC,2621 N BROAD ST,2621 N BROAD ST,COLMAR,PA,18915,0,40000
LIFEPSYCH CORP,5 REMARKABLE CT,5 REMARKABLE CT,GARNET VALLEY,PA,19061,2,96000
HM PERSONAL CARE HOME,12875 STATE ROUTE 30,12875 STATE Rt 30,NORTH HUNTINGDON,PA,15642,0,80000
WHITFORD HILLS AUTO           AND TIRE SERVICE CENTER INC,100 ERIE INSURANCE PLACE,100 ERIE INSURANCE PLACE,ERIE,PA,16530,0,53300
STOLTZFUS BROTHERS,205 OSCEOLA MILL RD,205 OSCEOLA MILL RD,GORDONVILLE,PA,17529,0,150000
HARRINGTON MANAGEMENT INC,9620 DONATION ROAD,9620 DONATION Rd,WATERFORD,PA,16441,80,1176206
Virali Enterprises Inc,5234 Summit Bridge Rd,5234 Summit Bridge Rd,Middletown,DE,19709,16,1357115
BLUM WATER SOLUTIONS LLC,100 ERIE INSURANCE PLACE,100 ERIE INSURANCE PLACE,ERIE,PA,16530,0,77250
RBR TECHNOLOGIES INC,42 VIRGINIA AVE,42 VIRGINIA AVE,READING,PA,19608,4,932364
Hickory Veterinary Hospital,2303 Hickory Rd,2303 Hickory Rd,Plymouth Meeting,PA,19462,0,7776075
WILLIAM R YAKIN,592 PERRY HWY,592 PERRY HWY,HARMONY,PA,16037,10,9039
CUMBERLAND AMERICAN LEGION POST 400,205 E GEORGE ST,205 E GEORGE ST,CARMICHAELS,PA,15320,5,160626
Superior Ambulance Service Inc,1301 Grandview Avenue Suite 400,1301 Grandview Ave Ste 400,Pittsburgh,PA,15211,0,1225000
MerlynAI Corporation,296 WEST RIDGE PIKE SUITE 204,296 W RIDGE Pk Ste 204,LIMERICK,PA,19468,0,0
STAMPONE LAW PC,1016 W 8TH AVE STE A,1016 W 8TH AVE STE A,KING OF PRUSSIA,PA,19406,0,7274640
NEPA VASCULAR LLC,1918 W FRONT ST,1918 W FRONT ST,BERWICK,PA,18603,0,401115
Alex Masur,161 Church Street Apt 2,161 Church St Apt 2,Washington,PA,15301,0,15001
Jarvis Field Services LLC,526 N Saint Cloud St.,526 N Saint Cloud St,Allentown,PA,18104,0,45000
CROSSROADS 61 INC,4643 POTTSVILLE PIKE,4643 POTTSVILLE Pk,READING,PA,19605,0,1581723
VALIDATION ASSOCIATES LLC,1168 QUEEN LN APT 2,1168 QUEEN LN APT 2,WEST CHESTER,PA,19382,3,383054
DONGILLI HEATING AND AIR CONDI,46 Public Square,,,,,,
CURT HUMMEL  ASSOCIATES PC,PO BOX 401,PO BOX 401,WEST CHESTER,PA,19381,0,41316
COMMERCIAL LINE  ELECTRICAL INC,PO BOX 72,PO BOX 72,GLEN MILLS,PA,19342,0,1512224
GENTEX CORPORATION,20 8TH AVE,20 8TH AVE,CARBONDALE,PA,18403,0,30365027
Princeton Putting Greens Inc,288 Pineville Rd,288 Pineville Rd,Newtown,PA,18940,0,0
BARISTA BOYZ LLC,TWO CHATHAM CTR     STE 800,TWO CHATHAM CTR   STE 800,PITTSBURGH,PA,15219,0,206569
NORTHEAST TITLE AND TAG INC NORTHEAST PACK AND SEND,215 S STATE ST,215 S STATE ST,CLARKS SUMMIT,PA,18411,,1770467
Philly Style Bagels LLC,218 ARCH ST,218 ARCH ST,PHILADELPHIA,PA,19106,5,216706
SILLHOPKINS JOY E,1056 TRENTON RD,1056 TRENTON RD,FALLSINGTON,PA,19054,1,177240
MEY  SULLA LLP,1144 E DRINKER ST,1144 E DRINKER ST,DUNMORE,PA,18512,0,111721
VARITRONICS INC,PO BOX 268,PO BOX 268,BROOMALL,PA,19008,0,635696
Hellers Gas Inc,459 Ridge St,459 Ridge St,Bloomsburg,PA,17815,0,63625802
AspenTechnology,406 Circle Top Ln,406 Cir Top Ln,West Chester,PA,19382,0,1019661
SCHUYLKILL NURSING ASSOCIATION INC,215 WYOMING AVE,215 WYOMING AVE,SCRANTON,PA,18503,0,304642
A SERVANTS HEART MEDICAL STAFFING LLC,125 Locust Street,125 Locust St,Harrisburg,PA,17101,0,100000
Reidsburg Independent,1392 Kittaning Pike,1392 Kittaning Pk,Karns City,PA,16041,0,611482
Services with a Purpose Inc,438 Colonial Dr.,438 Colonial Dr,Monroeville,PA,15146,10,546121
Bachman/Joy Construction Inc,4120 Bethlehem Pike,4120 Bethlehem Pk,Telford,PA,18969,0,5306802
CRAFTON CHILDRENS CORNER INC,2644 BANKSVILLE RD,2644 BANKSVILLE RD,PITTSBURGH,PA,15216,0,1493779
Gothic Stone Inc,201 Church Rd,201 Church Rd,North Wales,PA,19454,0,78000
HENDRICK MANUFACTURING COMPANY INC,1 7TH AVE,1 7TH AVE,CARBONDALE,PA,18407,112,31950000
Rosita Development LLC,2052 Forest Hills Drive P.O. Box 122,2052 Forest Hills Dr PO Box 122,Elton,PA,15934,0,91437
Delphia Management Corp,3 Rathton Rd,3 Rathton Rd,York,PA,17403,0,966448
BACHTELL VETERINARY SERVICES  LLC,ONE STATE FARM DR.,ONE STATE FARM DR,CONCORDVILLE,PA,19339,0,20000
Dcs School Of Driving LLC,6054 Lincoln Highway West,6054 Lincoln Hwy West,Thomasville,PA,17364,0,213809
Cicconi Landscape Inc,PO Box 3221,PO Box 3221,Wilmington,DE,19804,0,452827
ADVANCED WOMENS CARE OF PITTSBURGH PC 3928 WASHINGTON RD SUITE 230 PITTSBURGH PC,1000 BOWER HILL RD STE 213,1000 BOWER HILL RD STE 213,PITTSBURGH,PA,15243,0,2537349
KEELER ELECTRIC INC,146 DAVIS BRIDGE RD,146 DAVIS BRIDGE RD,BERNVILLE,PA,19506,0,464802
LIFESTEPSINC,466 CRESTVIEW DRIVE,466 CRESTVIEW Dr,PITTSBURGH,PA,15239,7,26308661
ST HENRYS LYCEUM,PO BOX 83777,PO BOX 83777,LANCASTER,PA,17608,0,27560
BAUGHMAN VELMA,525 SHERMAN ST APT 211,525 SHERMAN ST APT 211,CLYMER,PA,15728,0,1352
STUDIO ST GERMAIN LLC,435 BEAVER ST,435 BEAVER ST,SEWICKLEY,PA,15143,1,134160
RJM AUTOMATIC FIRE PROTECTION INC,P O  BOX 11600,P O BOX 11600,LANCASTER,PA,17605,0,0
HORIZON HOUSE INC,107 Melrose Drive,107 Melrose Dr,Newark,DE,19711,0,44345510
RCG GLOBAL SERVICES INC,555 CROTON RD STE 305,555 CROTON RD STE 305,KING OF PRUSSIA,PA,19406,3,2297100
DHM CONSTRUCTION LLC,129 Edgewood Dr,129 Edgewood Dr,Old Forge,PA,18518,,167781
ROOTSTOCK RACING,523 W Ellet St,523 W Ellet St,Philadelphia,PA,19119,,42000
ECOSTRATEGIES ENGINEERING      SURVEYING PLLC,1455 ABBAS AVE,1455 ABBAS AVE,LANCASTER,PA,17602,0,93480
HOLY CROSS REGIONAL CATHOLIC SCHOOL,225 STATE ROAD,225 STATE Rd,MEDIA,PA,19063,0,1812900
Mighty Care Givers LLC,528 Seven Bridge Rd Suite 304306,528 Seven Bridge Rd Ste 304306,East Stroudsburg,PA,18301,3,111067
HUGHES GLADYS,P.O. Box AH,,,,,,
Enger Educational Services Inc,300 Jackson Ave,300 Jackson Ave,Wilmington,DE,19808,0,0
SPARC GROUP HOLDINGS LLC,1665 STATE HILL ROAD,1665 STATE HILL Rd,WYOMISSING,PA,19610,17,1502119
RITTENHOUSE SAVOY OWNERS ASSOCIATION,575 E SWEDESFORD RD STE 200,575 E SWEDESFORD RD STE 200,WAYNE,PA,19087,0,225556
THE CLOSING SPECIALISTS,610 W MAIN ST,610 W MAIN ST,LIGONIER,PA,15658,0,220000
POSITIONING UNIVERSAL HOLDINGS INC,123 UNKNOWN PITTSBURG PA,123 UNKNOWN PITTSBURG PA,PITTSBURGH,PA,15228,1,77200
TAVANIS BARBER SHOP LLC,603 MACDADE BLVD,603 MACDADE BLVD,MILMONT PARK,PA,19033,0,137896
NTP MARBLE INC,2000 Washington Ave,2000 Washington Ave,Philadelphia,PA,19146,0,60300
Elementl Inc,34 W Mount Pleasant Ave,34 W Mount Pleasant Ave,Philadelphia,PA,19119,2,385000
BOTLD                         ONE TIER LLC D/B/A,112 SHAFFER ROAD,112 SHAFFER Rd,KING OF PRUSSIA,PA,19406,0,245000
Radiate HoldCo LLC,5508 NOR BATH BLVD,5508 NOR BATH BLVD,NORTHAMPTON,PA,18067,52,55016872
Hope Batchelor DVM PC,511 WORTHINGTON RD,511 WORTHINGTON RD,CHESTER SPRINGS,PA,19425,0,326165
SEIBERTS TRUCKING INC,4550 LENA DR,4550 LENA DR,MECHANICSBURG,PA,17055,0,109096
BARATTA LAW LLC,3500 READING WAY,3500 READING WAY,LOWER MORELAND TOWNS,PA,19006,0,736156
FLORES  ASSOCIATES LLC,795 PINE VAELLY DRIVE STE 21,795 PINE VAELLY Dr STE 21,PITTSBURG,PA,15239,7,452380
CASSIDY CONNOR  PITCHFORD LLC,1671 STEPHENS DR,1671 STEPHENS DR,Wayne,PA,19087,0,783418
Tunbridge Apartments LP,PO Box 439,PO Box 439,Media,PA,19063,0,223274
Parkettes National Gymnastics Team Inc,25 Race Avenue PO Box 83777,25 Race Ave PO Box 83777,Lancaster,PA,17608,0,1284777
JERMYN PRIMITIVE METHODIST CHURCH,PO BOX 787,PO BOX 787,SUNBURY,PA,17801,0,111000
BORIS CONSTRUCTION LLC,12875 STATE ROUTE 30,12875 STATE Rt 30,NORTH HUNTINGDON,PA,15642,0,80000
PYNOS INSURANCE AGENCY INC,5919 STATE ROUTE 981,5919 STATE Rt 981,LATROBE,PA,15650,0,35478
Rutledge Dental Associates Inc,410 N. Cass St.,410 N Cass St,Middletown,DE,19709,3,879538
MACRI ALEX,1424 VALLEY VIEW CIR,1424 VALLEY VIEW CIR,Orefield,PA,18069,0,43136
Bangor Jacksonian Club Inc,3001 Emrick Blvd. Suite 120,3001 Emrick Blvd Ste 120,Bethlehem,PA,18020,0,25850
J LIVINGSTON AUTO  PA LLC,100 ERIE INSURANCE PLACE,100 ERIE INSURANCE PLACE,ERIE,PA,16530,0,25000
NORTH BRADDOCK VOLUNTEER FIRE DEPARTMENT,500 Garden City Drive,,,,,,
Borough of East Petersburg,PO Box 249,PO Box 249,Montgomeryville,PA,18936,11,596411
JR KELLA  ASSOC LLC,PO BOX 160,PO BOX 160,BEAVER FALLS,PA,15010,0,140729
WASHINGTON GREENE ARS INC,939 ARCH ST,939 ARCH ST,WASHINGTON,PA,15301,0,5475918
Construction  General Laborers Union Local 833,1017 3rd Ave,1017 3rd Ave,New Brighton,PA,15066,0,190805
Conner Printing Inc,250 PARLIAMENT DR,250 PARLIAMENT DR,ANNVILLE,PA,17003,0,1477491
JOHN K GARVEY MASONRY,51 SCHOOL STREET,51 SCHOOL St,BROWNSTONE,PA,17508,0,0
G  G GAS INC,1380 HWY 286 STE 213,1380 HWY 286 STE 213,INDIANA,PA,15701,0,460648
Fed by Ted LLC,7085 Upper York Rd,7085 Upper York Rd,New Hope,PA,18938,4,75001
THE NUTTY PEAR                MICHAEL MASCEG INC D/B/A,181 W ADAMSDALE RD,181 W ADAMSDALE RD,SCHUYLKILL HAVEN,PA,17972,0,20000
YR KITCHEN  BATH LLC,1551 WASHINGTON AVE,1551 WASHINGTON AVE,PHILADELPHIA,PA,19146,1,40000
WALGREENS BOOTS ALLIANCE INC,300 DILLER AVE,300 DILLER AVE,NEW HOLLAND,PA,17557,10,55291948
PAGODA HILL VINEYARDS LLC,5451 OLEY TURNPIKE RD,5451 OLEY TURNPk RD,READING,PA,19606,0,42622
Dress Up Time,7240 Frankford Ave,7240 Frankford Ave,Philadelphia,PA,19135,3,31914
MusserKevin,74 COMMERCE DRIVE,74 COMMERCE Dr,WYOMISSING,PA,19610,0,62984
GLENN MATRA AND LOUIS TIBOLDO,5264 Rt 115,5264 Rt 115,Blakeslee,PA,18610,,608000
TRU NORTH HEATING  AIR INC,600 BRANDYWINE AVE,600 BRANDYWINE AVE,DOWNINGTOWN,PA,19335,0,930820
DREAM STYLE FURNITURE LLC,2224A BROAD ST,2224A BROAD ST,ERIE,PA,16503,1,26000
309 TRUCK STOP CORPORATION,1720 RT 309,1720 RT 309,COOPERSBURG,PA,18036,,132878
Jocas Corporation,590 W Street Rd,590 W St Rd,Warminster,PA,18974,0,16370541
FIRST PRESBYTERIAN CHURCH,600 E STATE ST,600 E STATE ST,SHARON,PA,16146,8,943032
Hilyards Inc,100 W. Common Blvd.,,,,,,
DIVELY RICHARD,850 RIDGE AVENUE,850 RIDGE Ave,Pittsburgh,PA,15122,0,56690
GOING ADR LLC DBA THE UPSSTORE4907 GOING CJR LLC DBA,1601 MAIN STREET,1601 MAIN St,WARRINGTON,PA,18976,4,697688
CIELITO FLOORING INC,2246 SAINT VINCENT ST,2246 SAINT VINCENT ST,PHILADELPHIA,PA,19149,0,40000
ANDERSON ULTRA EXPRESS CAR WASH,3041 CARLISLE RD,3041 CARLISLE RD,DOVER,PA,17315,0,27000
GILBOY  GILBOY LLP,109 PHEASANT RUN,109 PHEASANT RUN,NEWTOWN,PA,18940,0,376200
KORTES ADAM,P.O. Box AH,,,,,,
SCRANTON RENTALL CENTER,316 PENNSYLVANIA AVENUE,316 PENNSYLVANIA Ave,SCRANTON,PA,18503,0,766307
Ligonier Ministries Inc,31 Park Ave,31 Park Ave,Elverson,PA,19520,0,300938
Robert Knowlton LLC,610 WADSWORTH AVE,610 WADSWORTH AVE,PHILADELPHIA,PA,19119,0,6815
GREENE COVE GALLEY LLC,PO BOX 787,PO BOX 787,Fredericktown,PA,15333,,162422
Anvik Technologies Inc,301 ARROWHEAD CT,301 ARROWHEAD CT,WEST CHESTER,PA,19382,0,104800
AGNES EDMUNDS BRIDAL  FORMALS,100 ERIE INSURANCE PLACE,100 ERIE INSURANCE PLACE,ERIE,PA,16530,0,30000
Hallgren Staffing Solutions LLC,280 Lynne Drive,280 Lynne Dr,Mount Wolf,PA,17347,27,966844
PARISER INDUSTRIES INC,25 PEARL DR,25 PEARL DR,DOYLESTOWN,PA,18901,1,8350
ISHI MASONRY LLC,702 CLOVER RIDGE DRIVE,702 CLOVER RIDGE Dr,WEST CHESTER,PA,19380,4,100000
CHAMPION CONTRACTORS LLC,210 MATTHES AVE,210 MATTHES AVE,WILMINGTON,DE,19804,3,128000
HopeReid Inc,9778 PRESIDENTIAL DR,9778 PRESIDENTIAL DR,ALLISON PARK,PA,15101,18,1771533
Gillece Transmissions Inc,4631 Route 8,4631 Rt 8,Allison Park,PA,15101,2,1833677
BRENTWOOD MEDICAL GROUP INC,3720 BROWNSVILLE RD,3720 BROWNSVILLE RD,PITTSBURGH,PA,15227,0,420231
STEFANOW MACHINERY INC,335 MAIN ST,335 MAIN ST,DENVER,PA,17517,0,50900
Bestmix Software Inc DBA Adifo Software Inc,318 NEGLEY SPRING RD,318 NEGLEY SPRING RD,WILLIAMSBURG,PA,16693,1,44011
OLLIES BARGAIN OUTLET INC,1 BALDWIN BLVD STE 2  ORCHARD HILL SHOPPING CENTER,1 BALDWIN BLVD STE 2 ORCHARD HILL SHOPPING Ctr,SHAMOKIN DAM,PA,17876,21,179447028
CONLON  ASSOCIATES LLC,PO BOX 402,PO BOX 402,BRIDGEPORT,PA,19405,0,0
TECH TUNE N LUBE LLC,1001 MARKET ST,1001 MARKET ST,MEADVILLE,PA,16335,0,87591
STREMMEL MASONRY WAYNE STREMMEL T/A,195 BANKERT RD,195 BANKERT RD,HANOVER,PA,17331,6,99383
C W BREITSMAN ASSOCIATES LLC,Three Gateway Center 401 Liberty Ave Ste 1625,Three Gateway Ctr 401 Liberty Ave Ste 1625,Pittsburgh,PA,15222,3,673878
SHAFFER DESOUZA BROWN INC,335 MANOR AVENUE,335 MANOR Ave,DOWNINGTOWN,PA,19335,0,0
ARELLANO LLC,1195 RIVER RDPO BOX 302,1195 RIVER RDPO BOX 302,MARIETTA,PA,17547,0,909693
Cowan Phyllis,P.O. Box AH,,,,,,
MKSD LLC,1209 HAUSMAN RD STE A,1209 HAUSMAN RD STE A,ALLENTOWN,PA,18104,0,1912563
SPECIALTY DETAILING,2222 LINCOLN AVE,2222 LINCOLN AVE,LATROBE,PA,15650,2,83252
PHILADELPHIA PREMIER          CARDIOVASCULAR CONSULTANTS LLC,7452 OGONTZ AVE,7452 OGONTZ AVE,PHILADELPHIA,PA,19138,1,476000
Adams Oral Surgery Inc,1116 Kennebec Dr,1116 Kennebec Dr,Chambersburg,PA,17201,0,516626
THE GUARDIAN FOUNDATION INC,116 E HARFORD ST,116 E HARFORD ST,MILFORD,PA,18337,0,29511578
AVITAR SOLUTIONS INC,1893 HEMLOCK FARMS,1893 HEMLOCK FARMS,HAWLEY,PA,18428,1,0
CHARLIE HEALTH INC,TBD,TBD,Dover,DE,19902,2,4124426
WASHINGTON REPUBLICAN ASSOC,701-703 Wyandotte Street,701703 Wyandotte St,Bethleham,PA,18015,1,35850
TWISTED CREEK TRANSPORT LLC,119 HEAVENS VIEW RD,119 HEAVENS VIEW RD,SCHELLSBURG,PA,15559,4,210276
STONE MOUNTAIN TIRE            AUTO SERVICE LLC,4056 EAST MAIN ST,4056 E MAIN ST,BELLEVILLE,PA,17004,0,98833
AVAIL TECHNOLOGIES,1960 OLD GATESBURG RD STE 200,1960 OLD GATESBURG RD STE 200,STATE COLLEGE,PA,16803,1,6391096
Cedillo Sales LLC,85 w king street,85 w king St,Shippensburg,PA,17257,0,30000
Snaptober LLC,654 PHILADELPHIA STREET,654 PHILADELPHIA St,INDIANA,PA,15701,0,104800
Rodgers Scapes Inc,2700 Lincoln Way,2700 Lincoln Way,White Oak,PA,15131,5,60000
LAPPS LANDSCAPE PRODUCTS LLC,1828 OLD BETHLEHEM PIKE,1828 OLD BETHLEHEM Pk,SELLERSVILLE,PA,18960,1,155390
R J GLASS INC,1212 MILL RD,1212 MILL RD,DUNCANSVILLE,PA,16635,0,4054526
HAVIN INC,PO BOX 207 201 CORBETT STREET,,,,,,
GUY DEBORAH,3339 Big Rd,3339 Big Rd,Zieglersville,PA,19492,0,99450
MD CUSTOM PROPERTY MANAGEMENT INC,346 E MAIN STREET,346 E MAIN St,COLLEGEVILLE,PA,19426,0,62660
Fabulous Fido,3415 Pleasant Valley Blvd,3415 Pleasant Valley Blvd,Altoona,PA,16602,1,170018
FEDERATED LENDING CORP,1105 BERKSHIRE BLVD,1105 BERKSHIRE BLVD,WYOMISSING,PA,19610,0,355719
Indoor Adventure Holdings Inc,1486 Alton Way,1486 Alton Way,Downingtown,PA,19335,100,1300000
SHEETZ INC,223 COLONNADE BLVD,223 COLONNADE BLVD,STATE COLLEGE,PA,16803,0,1130055316
FERNHEIM FARMS,2 AVIGNON-ARBORDEAU,2 AVIGNONARBORDEAU,DEVON,PA,19333,,56800
TIN METAL INDUSTRIES LLC,23 FRALEY ST,,,,,,
STUTZ CANDY COMPANY INC,400 SOUTH WARMINSTER RD,400 S WARMINSTER RD,HATBORO,PA,19040,25,669011
VAG INC,7460 LANCASTER PIKE,7460 LANCASTER Pk,HOCKESSIN,DE,19707,5,423766
HORIZON HOUSE INC,4725 Chestnut St.,4725 Chestnut St,Philadelphia,PA,19139,0,44345510
MARSICOS SEPTIC  ENVIRONMENTAL SERVICES LLC,200 ACADEMY ST,200 ACADEMY ST,STILLWATER,PA,17878,0,478839
PLEASANTVILLE DINER INC        PLEASANTVILLE DINER,100 ERIE INSURANCE PLACE,100 ERIE INSURANCE PLACE,ERIE,PA,16530,0,30000
RAYMOND DOLCE LANDSCAPING INC,100 ERIE INSURANCE PLACE,100 ERIE INSURANCE PLACE,ERIE,PA,16530,0,110600
STYLE BY VAL LLC,320 COLLEGE AVE STE 2,320 COLLEGE AVE STE 2,BEAVER,PA,15009,0,22000
BICKELS SURPLUS TOO LLC,9 LOGAN BLVD,9 LOGAN BLVD,ALTOONA,PA,16602,0,2181024
EDWARD MENDOLA CPA INC,100 BEACON ST,100 BEACON ST,BELLE VERNON,PA,15012,0,130250
AILANI TRANSPORTATION INC,1709 S ALBERT ST APT 3,1709 S ALBERT ST APT 3,ALLENTOWN,PA,18103,1,183000
1ST METHODIST CHURCH OF WILLIA,PO BOX 1189,PO BOX 1189,ALTOONA,PA,16603,0,63760
MCGREGOR INDUSTRIES INC,46 LINE STREET,46 LINE St,DUNMORE,PA,18512,0,968
Island Petrol Inc,10000 Frankford Avenue,10000 Frankford Ave,Philadelphia,PA,19114,6,579609
MICHAEL J SMITH,100 ERIE INSURANCE PLACE,100 ERIE INSURANCE PLACE,ERIE,PA,16530,0,1000
CARIBBEAN POOLS,4434 Rt 30,,,,,,
NORTHERN STATE TRUCKING INC,PO BOX 225,PO BOX 225,WAYNESBURG,PA,15370,0,182931
ULTA BEAUTY INC,131 TOWN SQUARE PL,131 TOWN Sq PL,KING OF PRUSSIA,PA,19406,31,2911118
QUINDE CONSTRUCTION LLC,16192 COASTAL HWY,16192 COASTAL HWY,LEWES,DE,19958,0,2500
DAVIS  BUCCO PC,540 COURT ST OFC 1,540 Ct ST OFC 1,READING,PA,19601,2,673320
Tullis Shoe Service Inc,1746 E. Chocolate Avenue,1746 E Chocolate Ave,Hershey,PA,17033,0,35000
AREY BUILDING SUPPLY INC AREY LUMBER COMPANY INC JAMES AND NANETTE GOOD,PO BOX 188,PO BOX 188,WYSOX,PA,18854,,377338
TRUSTEES OF CHURCH OF GOD AND SAINTS OF CHRIST,5640 MIRIAN ROAD,5640 MIRIAN Rd,Philadelphia,PA,19124,0,10397
MEULENBERG CUSTOM FARMING LLC,667 PUSEYVILLE RD,667 PUSEYVILLE RD,KIRKWOOD,PA,17536,3,62347
BERGEY FAMILY CORPORATION,80 BETHLEHEM PIKE,80 BETHLEHEM Pk,COLMAR,PA,18915,4,12300000
NU MART                       SHEENMART LLC D/B/A,175 E STATE ST,175 E STATE ST,LARKSVILLE,PA,18704,0,45000
SR MECHANICAL LLC,PO BOX 417,PO BOX 417,WILKES BARRE,PA,18703,0,143000
TD Pizza LLC,903 E Pittsburgh St,903 E Pittsburgh St,Greensburg,PA,15601,0,153464
CHARLOTTE MASON EDUCATIONAL CE,171 HUNTERS LANE,171 HUNTERS Ln,DEVON,PA,19333,1,80000
HULMEVILLE BOROUGH  MUNICIPAL AUTHORITY,321 Main St,321 Main St,Hulmeville,PA,19047,,105532
MARTINS LINE RUNNERS,PO BOX 413,PO BOX 413,HUNTINGDON VALL,PA,19006,,132300
GEORGE STASH,330 LITTLE SUMMIT RD,330 LITTLE SUMMIT RD,DUNBAR,PA,15431,0,15000
HOFFMAN AUTO PARTS INC,P O BOX 2520,P O BOX 2520,CRANBERRY TWP,PA,16066,0,31544
NATIONAL AUTO PAINTING        NESHAMINY AUTO PAINTING AND   BODYWORKS,10 LINCOLN AVE,10 LINCOLN AVE,PENNDEL,PA,19047,0,632377
Cambria Restoration Services DBA Servpro of Ebensburg  Indiana County,2727 Warren Rd Ste B,2727 Warren Rd Ste B,Indiana,PA,15701,1,18960396
IHPNJ ER LLC,350 SENTRY PKWY STE 102,350 SENTRY PKWY STE 102,BLUE BELL,PA,19422,0,0
ADVANCED BUSINESS SERVICE INC LCF KD3 DESIGN,704 BRIDGE ST,704 BRIDGE ST,NEW CUMBERLAND,PA,17070,0,572786
Wilkes Barre Township,150 Watson St,150 Watson St,Wilkes Barre,PA,18702,31,2621253
NATIONAL VETERINARY ASSOCIATES INC,200 ELMWOOD STREET,200 ELMWOOD St,STATE COLLEGE,PA,16801,35,22226522
PROAC CORPORATION,711 WINDSOR STREET,711 WINDSOR St,HAMBURG,PA,19526,0,0
QLIK TECHNOLOGIES INC,1717 ARCH ST STE 1100,1717 ARCH ST STE 1100,PHILADELPHIA,PA,19103,0,137926767
FALCON EXECUTIVE HELICOPTERS INC,6 Bethany Dr,6 Bethany Dr,Pittsburgh,PA,15215,,81958
DR MICHAEL FONTANA,100 PENNSYLVANIA AVE STE 5,100 PENNSYLVANIA AVE STE 5,IRWIN,PA,15642,0,228036
WAGNER OLDFIELD CO LLC,3629 BUTLER ST,3629 BUTLER ST,PITTSBURGH,PA,15201,0,41000
VSG BUSINESS SOLUTIONS,222 CORNWELL DR,222 CORNWELL DR,BEAR,DE,19701,3,81388
SKY CONTRACTORS INC,36 Elio Circle,36 Elio Cir,Collegeville,PA,19426,2,57000
MROEKI INC DBA TH,100 E MAIN ST,100 E MAIN ST,MONONGAHELA,PA,15063,15,3176250
EARL WENZ INC,PO BOX 209,PO BOX 209,BREINIGSVILLE,PA,18031,0,348473
PNP HEATING  AIR CONDITIONING LLC,1315 CORAOPOLIS HEIGHTS RD,1315 CORAOPOLIS HEIGHTS RD,MOON TWP,PA,15108,5,734550
CHICOS F A S INC,20412 ROUTE 19,,,,,,
PDF Inc,137 Feather Street,137 Feather St,Ebensburg,PA,15931,0,7136259
DOVER CHICKEN LLC,677 N DUPONT HIGHWAY,677 N DUPONT Hwy,DOVER,DE,19901,7,460400
PENNS TRAIL ENVIROMENTAL LLC,21 E LINCOLN AVE STE 160,21 E LINCOLN AVE STE 160,HATFIELD,PA,19440,0,614366
Questco Holdings Inc,21 Dawes Dr.,21 Dawes Dr,Newark,DE,19968,1,1886210
NICK A PETRUCCI APPRAISAL INC,114 SKYVIEW DR,114 SKYVIEW DR,JEANNETTE,PA,15644,0,12000
PEN RYN MANSION ESTATE INC,1601 STATE RD,1601 STATE RD,BENSALEM,PA,19020,10,6847440
Deluca Roofing LLC,215 Bessemer Ave,215 Bessemer Ave,EAST PITTSBURGH,PA,15112,0,307871
FAYETTE JANITORIAL SERVICES LLC,405 N RACE ST # 2,405 N RACE ST 2,GEORGETOWN,DE,19947,0,0
R J POTTEIGER CONSTRUCTION    SERVICES INC,20 DEER LN,20 DEER LN,CARLISLE,PA,17015,0,403288
TKC HOLDINGS INC,1804 OPPORTUNITY AVE,1804 OPPORTUNITY AVE,CHAMBERSBURG,PA,17201,0,105827
TECHNIFORMS INC,601 Airport Blvd,601 Airport Blvd,Doylestown,PA,18902,0,1856950
AARON REIFF CONSTRUCTION LLC,360 E CHURCH ST,360 E CHURCH ST,STEVENS,PA,17578,0,123964
ANIMAL BIOTECH INDUSTRIES INC,5398 POINT PLEASANT PIKE,5398 POINT PLEASANT Pk,DOYLESTOWN,PA,18902,0,612917
Smith Geneva,P.O. Box AH,,,,,,
Stanford Pediatric Surgery,419 JOHNSON ST,419 JOHNSON ST,Jenkintown,PA,19046,0,220000
ALLTEMP ENTERPRISES INC,PO BOX 3102,PO BOX 3102,READING,PA,19607,14,893470
FAITH FRIENDSHIP MINISTRIES IN,128 W MAIN ST,128 W MAIN ST,MOUNTVILLE,PA,17554,34,1985491
The Fedcap Group Inc,35 Cams Fortune Way,35 Cams Fortune Way,Harrington,DE,19952,1,1329709
BRAMSON PRODUCTIONS INC,516 FEDERAL ST,516 FEDERAL ST,PHILADELPHIA,PA,19147,0,75689
AE VASQUEZ PAINTING LLC,6348 MOCKINGBIRD LN,6348 MOCKINGBIRD LN,SEAFORD,DE,19973,2,37635
GETZ DENISE,850 RIDGE AVENUE,850 RIDGE Ave,Pittsburgh,PA,15122,0,61101
NEW IMAGE REMODELERS          MARK WITTHOFF D/B/A,905 REINOEHL ST,905 REINOEHL ST,LEBANON,PA,17046,0,10000
LEES AT NORTHTOWNE INC,2896 DEKALB PIKE,2896 DEKALB Pk,NORRISTOWN,PA,19401,1,23788
SELECTECH INC,1542 BRIDGE ST,1542 BRIDGE ST,NEW CUMBERLAND,PA,17070,0,215209
CYGNUS HOLDCO LLC,381 OLD MILLS RD,381 OLD MILLS RD,TOWANDA,PA,18848,4,10040481
Guardian Property Solutions LLC,700 Evans St,700 Evans St,Bethlehem,PA,18015,0,20000
Convention  Visitors Bureau of Greater Monroeville,12875 Route 30,12875 Rt 30,North Huntingdon,PA,15642,0,219500
Being Home Matters LLC,P.O. Box AH,,,,,,
Becerra Rufino,1735 Linwood Ave,1735 Linwood Ave,Erie,PA,16510,3,46062
RICKERA LLC,203 Cassandra Dr,203 Cassandra Dr,Chalfont,PA,18914,,342392
NEW LEBANON BOROUGH,343 SMITH RD DARLENE SLEMENDA,343 SMITH RD DARLENE SLEMENDA,SANDY LAKE,PA,16145,0,4596
MERX GLOBAL INC,605 CHERRY BLOSSOM CT,605 CHERRY BLOSSOM CT,YORK,PA,17402,1,193573
Safe Home Care Agency LLC,617 Campbell Street,617 Campbell St,Scranton,PA,18505,15,50629
Main Line Fitness and Health Wellness LLC DBA Main Line Health Fitness and Wellness Center,1020 BALTIMORE PIKE,1020 BALTIMORE Pk,CONCORDVILLE,PA,19342,119,2122582
Regard MGT PA LLC,202-206 S Arch St,202206 S Arch St,Connellsville,PA,15425,0,360500
DR DANIEL R GEARY,603 Loucks Avenue,603 Loucks Ave,Scottdale,PA,15683,,12741
AMAZONCOM INC,134 SOUTH ALLEN STREET,134 S ALLEN St,ATLANTA,PA,16801,13,289397893
R PHILLIPS SERVICE LLC,1620 HORSE SHOE PIKE,1620 HORSE SHOE Pk,GLENMOORE,PA,19343,0,180000
G AND A OUTSOURCING LLC,429 S PRESIDENT AVE,429 S PRESIDENT AVE,LANCASTER,PA,17603,1,96800
ENLIVEN LLC,602 JEFFERS CIRCLE STE 108,602 JEFFERS Cir STE 108,EXTON,PA,19341,0,1288786
GERTRUDE HAWK HOLDINGS INC,160 N GULPH RD,160 N GULPH RD,KING OF PRUSSIA,PA,19406,4,0
HECKEL HARDSCAPE  LAWN CARE LLC,P O BOX 88,P O BOX 88,EPHRATA,PA,17522,0,110000
JAMES H MOSER,890 N READING RD,890 N READING RD,EPHRATA,PA,17522,0,35284
BOYER  BOYER PA LLC          DBA BOYER  BOYER CPA,2392 LIMESTONE RD,2392 LIMESTONE RD,WILMINGTON,DE,19808,14,1014588
East Allentown Fire Company,405 East Walnut Street,405 E Walnut St,Allentown,PA,18109,0,10314
MANCINIS BAKERY INC,543 WOODWARD AVE,543 WOODWARD AVE,MCKEES ROCKS,PA,15136,8,2814518
RESURRECTION BAPTIST CHURCH,504 4TH ST,504 4TH ST,BRADDOCK,PA,15104,0,61600
HERMAN A EICHHORST,P.O. Box AH,,,,,,
CTS LLC,201 Friends Meeting House,201 Friends Meeting House,Cochranville,PA,19330,0,53000
BEK MANAGEMENT II INC,1787 Sentry Parkway W,1787 Sentry Pkwy W,Blue Bell,PA,19422,0,0
fpPathfinder LLC,452 E 4TH ST,452 E 4TH ST,BERNVILLE,PA,19506,1,82250
BOYERS POND SHEKINAH FELLOWSHIP ANGELS OF EAST AFRICA INC,7368 LINCOLN HWY,7368 LINCOLN HWY,CENTRAL CITY,PA,15926,0,137127
DICKINSON CENTER INC,1536 WILCOX ROAD,1536 WILCOX Rd,SAINT MARYS,PA,15857,9,7857303
Tiebout Mary,850 RIDGE AVENUE,850 RIDGE Ave,Pittsburgh,PA,15212,0,10655
KENYON FUNERAL HOME INC,PO BOX 2361,PO BOX 2361,HARRISBURG,PA,17105,,327243
CALPINO DESSERTS LLC,850 GOLDEN DR STE 12,850 GOLDEN DR STE 12,BLANDON,PA,19510,29,96788
STARLIGHT NAILS LLC,305 GLEN DR UNIT 175,305 GLEN DR UNIT 175,MANCHESTER,PA,17345,0,70000
PRICKLY PINES LLC,PEDDLERS VILLAGE  #61,PEDDLERS VILLAGE 61,LAHASKA,PA,18931,0,18761
Henderson Vicky,P.O. Box AH,,,,,,
LEARNING SUPPORT GROUP,1320 SWAMP BRIDGE RD,1320 SWAMP BRIDGE RD,STEVENS,PA,17578,0,20000
STONEMOR INC,3332 LYCOMING MALL DRIVE,3332 LYCOMING MALL Dr,MUNCY,PA,17756,6,39953546
FORT ALLEN VOL FIRE CO,500 GARDEN CITY DR. SUITE 7G,500 GARDEN CITY DR Ste 7G,MONREVILLLE,PA,15146,0,39886
OLD REPUBLIC INTERNATIONAL CORPORATION,310 CHARLES STREET,310 CHARLES St,LUZERNE,PA,18709,0,82436807
SYNERGY CONSTRUCTION INC,867 W EVENS RD,867 W EVENS RD,VIOLA,DE,19979,0,170000
VOLT 2 AMP,21 W WINONA AVE,21 W WINONA AVE,NORWOOD,PA,19074,0,315300
AJPC Management LLC,100 W. Commons Blvd.,,,,,,
ZAVALAS REMODELING INC,660 Lincoln Highway,660 Lincoln Hwy,Fairless Hills,PA,19030,,43985
ANNIES SOFT ICE CREAM,1 WALDEN RD,1 WALDEN RD,LEBANON,PA,17042,,109300
RITAS WATER ICE              OKAYDOKAY INC D/B/A,448 W LINCOLN HWY,448 W LINCOLN HWY,PENNDEL,PA,19047,0,87451
CINTRONGARCIA IDA,850 RIDGE AVENUE,850 RIDGE Ave,Pittsburgh,PA,15212,0,22733
PHILABUNDANCE,2224 N 10TH ST,2224 N 10TH ST,PHILADELPHIA,PA,19133,0,10246500
ADVANCED PLASTIC SURGERY CENTER PA,1007 N ORANGE STR STE 1115,1007 N ORANGE STR STE 1115,WILMINGTON,DE,19801,0,784800
CANCER BRIDGES,600 GRANT STREET US STEEL,,,,,,
Reading Pride Celebration,40 Commerce Drive,40 Commerce Dr,Wyomissing,PA,19610,0,63269
YIANNIS TAVERNA Zandros LLC,PO BOX 336,PO BOX 336,CENTER VALLEY,PA,18034,,690895
JJMN BLESSED BAGELS INC,26 N 6TH ST STE 170,26 N 6TH ST STE 170,ALLENTOWN,PA,18101,0,119574
MIDDLETOWN FREE LIBRARYASSOC,135 JOHN ROBERT THOMAS DR,135 JOHN ROBERT THOMAS DR,EXTON,PA,19341,0,314254
J THOMAS CONSTRUCTION LLC,101 GOOD DR,,,,,,
The Bonney Ziegler Group Inc,901 N PENN ST STE P2202,901 N PENN ST STE P2202,PHILADELPHIA,PA,19123,2,279207
DEPETRIS CONSTRUCTION         MIKE DEPETRIS D/B/A,100 ERIE INSURANCE PLACE,100 ERIE INSURANCE PLACE,ERIE,PA,16530,0,1000
MASTER MECHANICAL CORP,1 PPG PL 10TH FL,1 PPG PL 10TH FL,PITTSBURGH,PA,15222,0,0
LAWTON CHIROPRACTIC INC,109 GATEWAY AVE STE 101,109 GATEWAY AVE STE 101,WEXFORD,PA,15090,0,90000
Bucks County Drug  Alcohol Commission,1730 South Easton Rd,1730 S Easton Rd,Doylestown,PA,18901,0,1498000
Market Math LLC,349 E Main St,349 E Main St,Dallastown,PA,17313,1,34610
PBV HOLDINGS INC,150 S 22ND ST,150 S 22ND ST,PITTSBURGH,PA,15203,9,120000
HOFFMAN ADVERTISING           ANGELLA LAUBACH D/B/A,1255 DIETRICH RD,1255 DIETRICH RD,MIFFLINBURG,PA,17844,0,55000
NO BONSALL SONS INC,223 W JUNIATA PKWY,223 W JUNIATA PKWY,MILLERSTOWN,PA,17062,0,35883
Brennecke Braun,6600 Ridgevue Drive,6600 Ridgevue Dr,Pittsburgh,PA,15236,1,1
Rainbow Washhouse Inc,961 Springton Rd,961 Springton Rd,Glenmoore,PA,19343,6,710666
ATT SERVICES INC,970 GREENTREE ROAD PARKWAY CENTER,970 GREENTREE Rd Pkwy Ctr,PITTSBURGH,PA,15220,0,49041723
The Program for Female  Offenders of SouthCentral PA,220 E King St. STE 1,220 E King St STE 1,York,PA,17403,0,272403
DISANTE FRANCHISE HOLDINGS LLC,4550 LENA DRIVE,4550 LENA Dr,MECHANICSBURG,PA,17055,0,1205820
Profound Platform Inc,3826 MANAYUNK AVE,3826 MANAYUNK AVE,PHILADELPHIA,PA,19128,1,32292
Liquid Inc,222 Deemer Rd,222 Deemer Rd,Easton,PA,18042,2,387
STRADOS LABS INC,902 N MARKET ST,902 N MARKET ST,WILMINGTON,DE,19801,1,506324
FELT  FAT LLC,100 ERIE INSURANCE PLACE,100 ERIE INSURANCE PLACE,ERIE,PA,16530,0,886969
OXLEY ENTERPRISES,43 KNICKERBOCKER LN,43 KNICKERBOCKER LN,MALVERN,PA,19355,1,256129
GRICE CHIROPRACTIC LLC,7011 CRIDER RD STE 105,7011 CRIDER RD STE 105,MARS,PA,16046,0,376800
SPECTRA INC,2675 CAROLEAN INDUSTRIAL DR,2675 CAROLEAN INDUSTRIAL DR,STATE COLLEGE,PA,16801,2,4249610
SKP ENTERPRISES INC,44 REAR W MARKET STREET,44 REAR W MARKET St,WILKES BARRE,PA,18701,0,117008
CHRIST UNITED LUTHERAN CHURCH,PO BOX 787,PO BOX 787,SUNBURY,PA,17801,0,90220
TECHNISURE LLC,108 PALSGROVE WAY,108 PALSGROVE WAY,CHESTER SPRINGS,PA,19425,0,156822
HAYES FODIE,1018 W. OREGON AVENUE,1018 W OREGON Ave,Philadelphia,PA,19148,0,13547
CARLINOS SPECIALTY FOODS INC,2616 E. COUNTY LINE ROAD,2616 E COUNTY LINE Rd,ARDMORE,PA,19003,50,5450682
Rockbridge Lawnworks Inc,2101 Oregon Pike Suite 202,2101 Oregon Pk Ste 202,Lancaster,PA,17601,0,106145
GETTYSBURG ADAMS CHAMBER OF COMMERCE  ADAMS CO ECONOMIC,1382 BIGLERVILLE RD,1382 BIGLERVILLE RD,GETTYSBURG,PA,17325,0,201610
Deguzman Teresa,140 Knox Dale Rd.,140 Knox Dale Rd,Punxsutawney,PA,15767,0,54513
MALONE SAMANTHA A            DBA NINE LIVES THRIFT STORE,2435 BUTLER ST,2435 BUTLER ST,EASTON,PA,18042,0,33106
GAVARONE JOHN J,3743 WALNUT ST,3743 WALNUT ST,PHILADELPHIA,PA,19104,0,346300
BALLA CUSTOM SERVICES LLC,PO BOX 391,PO BOX 391,LANSDALE,PA,19446,0,548047
D  S PENSAK FARMS LLC,3743 SR 6,3743 SR 6,Tunkhannock,PA,18657,,16000
FAMILY DRIVEIN THEATRE       LOWELL WATTS D/B/A,141 N ELK AVE,141 N ELK AVE,KANE,PA,16735,0,8000
MANNING JOSEPH,5524 HAVERFORD AV APT 105,5524 HAVERFORD AV APT 105,Philadelphia,PA,19139,0,45906
CHARTER COMMUNICATIONS INC,358 OLD ORCHARD DR,358 OLD ORCHARD DR,EASTON,PA,18045,1,1951344
GRACE BRETHREN CHURCH,661 N NEWBERRY ST,661 N NEWBERRY ST,YORK,PA,17404,7,525666
UPBOUND GROUP INC,2676 N SUSQUEHANNA TRL,2676 N SUSQUEHANNA TRL,SHAMOKIN DAM,PA,17876,4,27578004
NEALEY RENITA,4123 PARRISH ST APT A,4123 PARRISH ST APT A,Philadelphia,PA,19104,0,35948
BLAIR COUNTY OIL AND SUPPLY CO INC,RD2 BOX 237A                   ROUTE 164,RD2 BOX 237A          Rt 164,MARTINSBURG,PA,16662,0,6215187
REMAX REALTY AGENCY,1040 LEIDIG DR,1040 LEIDIG DR,CHAMBERSBURG,PA,17201,1,66684
MedSmart Consultation Services Inc,1327 Friendship St,1327 Friendship St,Philadelphia,PA,19111,2,68695
ROCKY RIDGE TRADING CO INC,229 Bordell Rd PO Box 226,229 Bordell Rd PO Box 226,Rew,PA,16744,0,313078
TRUMBAUERSVILLE BOROUGH,1 EVERGREEN DRIVE  P O BOX 100,1 EVERGREEN Dr P O BOX 100,TRUMBAUERSVILLE,PA,18970,0,81369
FOLLETT CORPORATION,1750 CLAIRTON ROAD,1750 CLAIRTON Rd,WEST MIFFLIN,PA,15122,1,7028
PJ Greenville LLC,36 HADLEY RD,36 HADLEY RD,Greenville,PA,16125,0,622886
MKS Courier LLC,2251 Cabot Blvd W,2251 Cabot Blvd W,Langhorne,PA,19047,0,3100000
Deans Auto Repair  Towing Inc,911 Evergreen Rd,911 Evergreen Rd,Leechburg,PA,15656,4,52800
TORNETTA REALTY CORPORATION,8459 RIDGE AVE,8459 RIDGE AVE,PHILADELPHIA,PA,19128,0,2741405
RUSSIAN BROTHERHOOD,1150 THORN RUN RD STE 106A,1150 THORN RUN RD STE 106A,MOON TOWNSHIP,PA,15108,0,24400
NSC GLOBAL LLC,4139 OREGON PIKE,4139 OREGON Pk,EPHRATA,PA,17522,0,43000
Shana Alvare,1527 Redfern Drive,1527 Redfern Dr,Pittsburgh,PA,15241,0,0
RICK RIGHTER                  AUTOMOTIVE INC,3966 CROSSKEYS RD,3966 CROSSKEYS RD,COLLEGEVILLE,PA,19426,0,414540
Flashbots US,682 JAKE LANDIS RD,682 JAKE LANDIS RD,LITITZ,PA,17543,1,241654
RODNEY SHOEMAKER PLUMBING INC,630 LANDIS RD,630 LANDIS RD,TELFORD,PA,18969,0,203990
GARRISON ENTERPRISES LLC,2864 Creek Rd,2864 Creek Rd,Yorklyn,DE,19736,3,340400
GLOBAL TITLE INC,18 PEDDLERS VILLAGE CTR,18 PEDDLERS VILLAGE CTR,CHRISTIANA,DE,19702,0,531671
MECO CONSTRUCTORS INC,684 DUNKSFERRY ROAD,684 DUNKSFERRY Rd,BENSALEM,PA,19020,0,0
BRAHLER CONTRACTING           EDWARD BRAHLER D/B/A,122 HICKORY DR,122 HICKORY DR,POTTSVILLE,PA,17901,0,25000
BIODURO LLC,204 VILLAGE WALK,204 VILLAGE WALK,EXTON,PA,19341,1,537800
NORTH PENN SUPPLY             QUARRIES LLC,200 N WEST ST,200 N W ST,COUDERSPORT,PA,16915,0,75839
Coates Loretta,P.O. Box AH,,,,,,
ECLIPSE ADVANTAGE GROUP HOLDINGS LP,1 GEOFFREY DR,1 GEOFFREY DR,FAIRLESS HILLS,PA,19030,0,1841114
ENDLESS MOUNTAIN LEARNING CENTER INC,PO BOX 404,PO BOX 404,NEW MILFORD,PA,18834,0,316508
LANCASTER COUNTY CAREER  TECHNOLOGY FOUNDATION,1730 HANS HERR DR,1730 HANS HERR DR,WILLOW STREET,PA,17584,0,50900
PETKO INVESTMENTS LLC,136 FILBERT ORIENT ROAD,136 FILBERT ORIENT Rd,CARDALE,PA,15420,0,208000
Home Technology Specialists of America,123 MAIN STREET,123 MAIN St,JAMISON,PA,18929,1,1773246
ADMIN WITHIN LLC,635 SCHOOL LINE DR,635 SCHOOL LINE DR,KING OF PRUSSIA,PA,19406,0,265000
LIMERICK FINANCIAL GROUP LLC,675 N LEWIS RD,675 N LEWIS RD,LINERICK,PA,19468,0,108452
PFM II LLC,1735 MARKET ST FL 42,1735 MARKET ST FL 42,PHILADELPHIA,PA,19103,150,109269
Oceanic Enterprises LLC,1118 Tribbett Ave.,1118 Tribbett Ave,Sharon Hill,PA,19079,0,65743
JUSTWORKS EMPLOYMENT GROUP LLC,7150 HAMILTON ST  UNIT 251,7150 HAMILTON ST UNIT 251,TREXLERTOWN,PA,18087,3,63304
EASTERN SALES SERVICES INC,330 W STATE ST,330 W STATE ST,MEDIA,PA,19063,0,1839501
MJ REBAR LLC,147 GWYNMONT DR,147 GWYNMONT DR,NORTH WALES,PA,19454,4,4800000
MCMACKIN MECHANICAL LLC,3853 OLD EASTON RD,3853 OLD EASTON RD,DOYLESTOWN,PA,18902,16,871097
13CHANCELLOR LLC,208 S 13TH STREET,208 S 13TH St,PHILADELPHIA,PA,19107,7,129907
NEW ALEXANDRIA PUBLIC LIBRARY,405 Main St,405 Main St,New Alexandria,PA,15670,,20732
LINCOLN SIGN CO,325 MAIN ST,325 MAIN ST,ATGLEN,PA,19310,1,45000
Biopeptek Pharmaceuticals LLC,5 Great Valley Pkwy,5 Great Valley Pkwy,Malvern,PA,19355,0,10000
SAMUEL HOLDINGS INC,4990 GRAND AVE,4990 GRAND AVE,PITTSBURGH,PA,15225,0,82400
DIXON MEATS,4677 Parkwood Rd,4677 Parkwood Rd,Shelocta,PA,15774,,81018
KARPMAN CONSULTINGLLC,1213 WALNUT ST,1213 WALNUT ST,PHILADELPHIA,PA,19107,1,32706
Ashton Pools by Design Inc,34696 Jiffy Way,34696 Jiffy Way,Lewes,DE,19958,0,908053
Veterinarian Partners of Pennsylvania PC,1658 PA # 228,1658 PA 228,CRANBERRY TWP,PA,16066,0,962000
BURRITOS 2 BEACH LLC,PO BOX 4095,PO BOX 4095,READING,PA,19606,0,149085
AJ STONES MASTER GREEN REMODELER AJ STONES D/B/A,100 ERIE INSURANCE PLACE,100 ERIE INSURANCE PLACE,ERIE,PA,16530,0,1000
FARRIS ADRIANE,850 RIDGE AVENUE,850 RIDGE Ave,Pittsburgh,PA,15212,0,68362
V O GEORGE GROUP INC,PO BOX 547,PO BOX 547,WEXFORD,PA,15090,0,65000
EVONIK CORPORATION,RT. 13 AT BEAVER DAM ROAD,RT 13 AT BEAVER DAM Rd,BRISTOL,PA,19007,0,57211351
FOX MANAGEMENT  REHABILITATION SERVICES LLC,3893 ADLER PL,,,,,,
Carlos Landscaping LLC,210 Shawnee Ave,210 Shawnee Ave,Dover,PA,17315,0,70000
REETZO INC,612 JEAN ST,612 JEAN ST,GREENSBURG,PA,15601,0,954000
MAD CHICKEN PGH LLC,146 FOREST HILLS PLZ,146 FOREST HILLS PLZ,PITTSBURGH,PA,15221,0,243552
THOMAS DIDIANO  SON          DEVELOPERS INC,1337 PAULSON AVE,1337 PAULSON AVE,PITTSBURGH,PA,15206,0,114890
DSP FITNESS LLC               DBA PURE BARRE,207 DORSEYVILLE RD,207 DORSEYVILLE RD,PITTSBURGH,PA,15215,1,119966
ATR ELECTRICAL SERVICES INC,1013 CENTRE RD SUITE 200,1013 Ctr RD Ste 200,WILMINGTON,DE,19805,0,975227
EAST END GARAGE LLC,412 VINE ST,412 VINE ST,MIDDLETOWN,PA,17057,0,52000
CURTIS Z KOFROTH,14 FAWN DR,14 FAWN DR,QUARRYVILLE,PA,17566,4,10059
EMMANUEL LUTHERAN CHURCH,PO BOX 1310,PO BOX 1310,MECHANICSBURG,PA,17055,0,540468
THE LAB AT SEASCAPE,200 W Liberty Way,200 W Liberty Way,Milford,DE,19963,0,1871724
Super Star Sports LLC,800 Mount Royal Blvd,800 Mount Royal Blvd,Pittsburgh,PA,15223,1,89025
TRANSTAR BROKERAGE INC,10864 STATE ROUTE 61,10864 STATE Rt 61,KULPMONT,PA,17834,8,205293
BUFFALO TOWNSHIP UNION COUNTY,205 Front Street,205 Front St,Northumberland,PA,17857,,209625
Rosemary Butler,22317 Dupont Blvd,22317 Dupont Blvd,Georgetown,DE,19947,0,1
ELK COUNTY EXCAVATING LLC,1195 RIVER RDPO BOX 302,1195 RIVER RDPO BOX 302,MARIETTA,PA,17547,0,300000
CUSTOMERS BANCORP INC,PO BOX 7011,PO BOX 7011,WYOMISSING,PA,19610,0,349200
MCKEEVER MARGARET A          DBA MY SISTERS SHOP,3500 HIGHLAND AVE,3500 HIGHLAND AVE,FINLEYVILLE,PA,15332,1,59250
Superior Metalworks Inc,P.O. Box 1379,PO Box 1379,Carlisle,PA,17013,0,551218
W S HARWOOD PROPERTY          SERVICES LLC,PO BOX 264,PO BOX 264,POCOPSON,PA,19366,0,33850
BIGCENTRIC INC,151 EDGEMOOR RD,151 EDGEMOOR RD,WILMINGTON,DE,19809,0,263643
YPRIME LLC,1041 OLD CASSATT RD,1041 OLD CASSATT RD,BERWYN,PA,19312,0,17783817
LINCOLN LANDSCAPES,949 PIZZA BARN RD,949 PIZZA BARN RD,BLAIRSVILLE,PA,15717,0,0
LANGS SEALCOATING LLC,2422 N BROAD STREET,2422 N BROAD St,COLMAR,PA,18915,0,121000
JOHN COCKERILL NORTH AMERICA INC,5300 KNOWLEDGE PKWY,5300 KNOWLEDGE PKWY,ERIE,PA,16510,95,6555423
KEEN MASONRY LLC DBA,6424 SADDLE RD,6424 SADDLE RD,NEW TRIPOLI,PA,18066,2,96425
WR BERKLEY CORPORATION,30 S 17TH ST SUITE 1450,30 S 17TH ST Ste 1450,PHILADELPHIA,PA,19103,24,45856800
KM Flooring LLC,3217 Steele Ave,3217 Steele Ave,Bristol,PA,19007,1,75000
HOFFMAN UNITED LLC,2800 W 21ST ST,2800 W 21ST ST,ERIE,PA,16506,0,603210
Coopers Animal Supply Inc,25 Race Avenue PO Box 83777,25 Race Ave PO Box 83777,Lancaster,PA,17608,0,30000
Faithful Companions Pet Cemetery  Crematory Inc,2919 ROLLING HILLS RD,2919 ROLLING HILLS RD,Ulster,PA,18850,10,527770
NEWELL BRANDS INC,18 WEST LIGHTCAP RD. PHILADELPHIA PREMIUM OUTLETS,18 W LIGHTCAP RD PHILADELPHIA PREMIUM OUTLETS,POTTSOWN,PA,19464,0,26121252
MCELDERRY DRYWALL INC,100 BRICKYARD LN,100 BRICKYARD LN,NEW BERLINVILLE,PA,19545,0,1247073
HARRIS TEA COMPANY LLC,555 NORTH LANE SUITE 6060,555 N Ln Ste 6060,CONSHOHOCKEN,PA,19428,0,0
FOLLETT CORPORATION,1300 WEST GODFREY AVE,1300 W GODFREY AVE,PHILADELPHIA,PA,19141,1,7028
HANOVER AREA CHAMBER OF COMMERCE AND/OR MAIN STREET HANOVER INC,40 YORK ST STE 2,40 YORK ST STE 2,HANOVER,PA,17331,6,247174
ADVANTAGE FORESTRY            DONALD H KLINGER D/B/A,522 S PANCOAST RD,522 S PANCOAST RD,REYNOLDSVILLE,PA,15851,0,14535
HEARTH OF MALVERN LLC,1105 BERKSHIRE BLVD,1105 BERKSHIRE BLVD,WYOMISSING,PA,19610,0,988596
DOLLAR TREE INC,7527 HUNTINGDON PLAZA,7527 HUNTINGDON Plz,HUNTINGDON,PA,16652,4,13608629
LAMBUR FLOORING LLC,2707 KIRKBRIDE ST.,2707 KIRKBRIDE ST,PHILADELPHIA,PA,19137,0,10000
Sentinel Self Storage LLC,818 First State Blvd,818 First State Blvd,Wilmington,DE,19804,56,2609952
POLLIN MILLER HOSPITALITY STRATEGIES INC,4650 LINDLE RD,4650 LINDLE RD,HARRISBURG,PA,17111,39,42252951
INNOVATIVE SYSTEM GROUP INC,1050 W Swedesford Rd,1050 W Swedesford Rd,Berwyn,PA,19312,0,767766
MORAN INDUSTRIES INC,118 E 8TH STREET,118 E 8TH St,WATSONTOWN,PA,17777,1,7800000
Princess Authentic Jamaican Food LLC,2340 Butler St,2340 Butler St,Easton,PA,18042,0,18300
LEO KOB COMPANY INC,46 Public Square,,,,,,
GENESCO INC,2901 E COLLEGE AVE,2901 E COLLEGE AVE,STATE COLLEGE,PA,16801,1,743111
THE PLASTIC SURGERY CENTER PA,1401 FAIRMONT STREET,1401 FAIRMONT St,WHITEHALL,PA,18052,0,291023
DETAILS HAIR DESIGN LLC,410 E MAIN ST,410 E MAIN ST,EPHRATA,PA,17522,0,37900
CRABS OF FENWICK LLC,100 COASTAL HIGHWAY,100 COASTAL Hwy,Fenwick Island,DE,19944,0,243000
AGROFRESH SOLUTIONS INC,510-530 WALNUT STREET         SUITE 1350,510530 WALNUT St     Ste 1350,PHILADELPHIA,PA,19106,60,8071029
MEDICAL GUARDIAN LLC,109 ROGERS RD STE 3,109 ROGERS RD STE 3,WILMINGTON,DE,19801,10,849076
PETROLEUM VALLEY YOUTH COALITION,251 MAGNOLIA RD,251 MAGNOLIA RD,CHICORA,PA,16025,0,87900
McGuire Memorial,132 Chippewa Park Rd,132 Chippewa Park Rd,Beaver Falls,PA,15010,0,25064514
Pennwood Operating LLC,909 West St,909 W St,Pittsburgh,PA,15221,2,5000106
MT SALEM UNITED METHODIST CHURCH,2629 W 19TH ST,2629 W 19TH ST,WILMINGTON,DE,19806,0,80000
SC of Pa Inc,1 Elizabeth St,1 Elizabeth St,Matamoras,PA,18336,0,1223038
MILLTOWN FAMILY MEDICINE LLC,100 ERIE INSURANCE PLACE,100 ERIE INSURANCE PLACE,ERIE,PA,16530,0,99600
UNDER ARMOUR INC,250 INDUSTRY DR.,250 INDUSTRY DR,PITTSBURGH,PA,15275,35,4781223
Red Rabbit Venture Capital,231 E 2nd St,231 E 2nd St,Bernville,PA,19506,0,517477
ELLES BEAUTY BAR LLC,2500 BROOKTREE RD STE 302,2500 BROOKTREE RD STE 302,WEXFORD,PA,15090,0,130000
Rameshbhai Patel,61 Corporate Circle,61 Corporate Cir,New Castle,DE,19720,0,1
Caring Personal Touch LLC,P.O. Box AH,,,,,,
HOLGANIX LLC,1000 N 5 POINTS RD,1000 N 5 POINTS RD,WEST CHESTER,PA,19380,1,674167
Inperium Inc,724 East Cumberland Street,724 E Cumberland St,Lebanon,PA,17042,0,98304507
Poured Out Cafe LLC,5406 Lincoln Hwy,,,,,,
TREMELLEN MEDIA HOUSE LLC,317 BRENNEMAN RD,317 BRENNEMAN RD,WILLOW STREET,PA,17584,0,32136
SULLIVAN DONAHOE  INGALLS PC,903 Wayne Avenue,903 Wayne Ave,Portage,PA,15946,1,86934
BIENAIME BENITHE,850 RIDGE AVENUE,850 RIDGE Ave,Pittsburgh,PA,15212,0,2022
NEWELL JOHN H DMD INC,4750 OLD WILLIAM PENN HWY,4750 OLD WILLIAM PENN HWY,MURRYSVILLE,PA,15668,0,127914
MILLAR THERESA,49 Chase Ave,49 Chase Ave,Ivyland,PA,18974,0,24024
FAQ MANUFACTURING,1507 Wayne St,1507 Wayne St,Erie,PA,16503,0,1318600
FOTOKEM INDUSTRIES INC,12 HORSESHOE LN,12 HORSESHOE LN,NEWTOWN SQUARE,PA,19073,1,176487
JAFFE  KECSKEMETHY PC,101 E DIAMOND ST,101 E DIAMOND ST,BUTLER,PA,16001,4,257844
SUNBURY MOTOR COMPANY,E/S ROUTES 11 & 15,E/S RteS 11 & 15,Hummels Wharf,PA,17831,0,9196166
ALLISON COMPETITION ENGINES INC,4686 ROUTE 982,4686 Rt 982,LATROBE,PA,15650,2,31387
GBK Automotive Center LLC,PO Box 659,PO Box 659,Lititz,PA,17543,0,612639
Hickory Falls Family Entertainment,110 Hickory Ln,110 Hickory Ln,Hanover,PA,17331,0,675000
Murrysville Auto Clinic Inc,311 MAIN STREET,311 MAIN St,IRWIN,PA,15642,0,176538
NATIONAL HEALTHCARE INC,701 RODI ROAD SUITE 100,701 RODI Rd Ste 100,PITTSBURGH,PA,15235,0,1843000
AGORA BENEFITS LLC,2593 WEXFORD BANE RD. STE 102,2593 WEXFORD BANE RD STE 102,SEWICKLEY,PA,15143,0,116673
Restaurant Advisory Services Inc,328 S. Main Street,328 S Main St,New Hope,PA,18938,0,500000
TJH2B ANALYTICAL SERVICES INC,204 GALE LN # 2,204 GALE LN 2,KENNETT SQUARE,PA,19348,0,191573
COMMUNITY OPTIONS INC,1735 RIPLEY STREET,1735 RIPLEY St,PHILADELPHIA,PA,19111,5,57274889
BODYBORNEMAN LTD,400 FRANKLIN AVE  STE 205,400 FRANKLIN AVE STE 205,PHOENIXVILLE,PA,19460,0,4019935
SALVATORI DOMINIC D,310 CHESTNUT ST STE 101,310 CHESTNUT ST STE 101,MEADVILLE,PA,16335,1,42000
Siraks Landscaping  Hardscaping LLC,Route 590 P.O. Box 640,Rte 590 PO Box 640,Hamlin,PA,18427,0,223080
TWINSISTERDOCS FOUNDATION INC,6020 GREENE ST,6020 GREENE ST,PHILADELPHIA,PA,19144,0,75000
DEMPSEY FARMS LLC,1708 FAST LANDING RD,1708 FAST LANDING RD,DOVER,DE,19901,0,323331
HAMILTON CONTRACTORS INC,610 FREEDOM BUSINESS CENTER DR,610 FREEDOM BUSINESS Ctr DR,KING OF PRUSSIA,PA,19406,0,80000
AKUMIN INC,600 EAST TOWNSHIP LINE ROAD,600 E TOWNSHIP LINE Rd,HAVERTOWN,PA,19083,3,8034779
J DEFRANCO  DAUGHTERS CATERING INC,2173 W BANGOR RD,2173 W BANGOR RD,BANGOR,PA,18013,0,47712
KOMATSU AMERICA CORP,28587 SUSSEX HWY,28587 SUSSEX HWY,LAUREL,DE,19956,0,1051850
CBRE GROUP INC,100 S INDEPENDENCE MALL W,100 S INDEPENDENCE MALL W,PHILADELPHIA,PA,19106,0,285450742
FLICKS TV AND ELECTRONICS INC,701 RODI ROAD SUITE 100,701 RODI Rd Ste 100,PITTSBURGH,PA,15235,0,528536
SHIP TO BOX INC,4060 N DUPONT HWY STE 1 AND STE 2,4060 N DUPONT HWY STE 1 AND STE 2,NEW CASTLE,DE,19720,0,0
WAREHOUSE STORAGE GROUP LLC,9817 SPOTLESS ST,9817 SPOTLESS ST,Seaford,DE,19973,0,68739
ISG Consulting PC,359 E STREET RD,359 E St RD,FEASTERVILLE TREVOS,PA,19053,1,0
Antonia King,25 Flagstic Ln Apt 202,25 Flagstic Ln Apt 202,Magnolia,DE,19962,0,2
DKSH NORTH AMERICA INC,1047 COUNTRY CLUB RD,1047 COUNTRY CLUB RD,WEST CHESTER,PA,19382,1,226428
AMERICAN KITCHEN MACHINERY  REPAIR CO INC,204 QUARRY STREET,204 QUARRY St,PHILADELPHIA,PA,19106,31,2430147
STARBUCKS CORPORATION,616 N. DUPONT BLVD,616 N DUPONT BLVD,MILFORD,DE,19963,10,13025272
BUBBENMOYER MARYELLEN,850 RIDGE AVENUE,850 RIDGE Ave,Pittsburgh,PA,15212,0,80319
SOLUTIONS FOR ACCOUNT,55 OLD CLAIRTON RD,55 OLD CLAIRTON RD,PITTSBURGH,PA,15236,0,245450
WILLIAMSPORT PATHOLOGY        ASSOCIATION,700 HIGH ST,700 HIGH ST,WILLIAMSPORT,PA,17701,1,1650000
THE HAIRITAGE                 CINDY HART D/B/A,773 NORTH MAIN ST,773 N MAIN ST,MEADVILLE,PA,16335,0,268000
MICHAEL S TRAVIS,3904 TRINDLE RD,3904 TRINDLE RD,CAMP HILL,PA,17011,0,20000
Blackmore Ops LLC,140 West Allen St,140 W Allen St,Mechanicsburg,PA,17055,0,137295
CAPO SUPPLY,ATTN IAN CAPOFERRI            892 S DOCK ST,ATTN IAN CAPOFERRI      892 S DOCK ST,SHARON,PA,16146,0,192893
NIGHT BIRD VINTAGE CLOTHING   LLC,36 KILTIE DR,36 KILTIE DR,NEW HOPE,PA,18938,1,20000
FRIENDLY FOOD MART            VANDRUHI LLC D/B/A,100 ERIE INSURANCE PLACE,100 ERIE INSURANCE PLACE,ERIE,PA,16530,0,31751
MATTRESS AND MORE             STEPHEN GOODWILL D/B/A,100 ERIE INSURANCE PLACE,100 ERIE INSURANCE PLACE,ERIE,PA,16530,0,41250
GORDON MATUSAVIGE,1306 STATE ROUTE 292 E,1306 STATE Rt 292 E,Tunkhannock,PA,18657,0,44000
EDINBORO CEMETERY ASSOC,100 ERIE INSURANCE PLACE,100 ERIE INSURANCE PLACE,ERIE,PA,16530,0,29075
CHICKNESS PAMELA,ONE STATE FARM DR.,ONE STATE FARM DR,CONCORDVILLE,PA,19339,0,122570
A PAONE LANDSCAPING LLC,722B NORRISTOWN RD,722B NORRISTOWN RD,HORSHAM,PA,19044,0,279846
Bryn Mawr Orthodontics LLC,1 TOWN PL STE 120,1 TOWN PL STE 120,BRYN MAWR,PA,19010,0,62900
HOLLYWOOD HOLDCO I LLC,1464 MARSHALL RD,1464 MARSHALL RD,ROARING BRANCH,PA,17765,0,764247
SBM MANAGEMENT SERVICES LP,2060 DETWILER RD,2060 DETWILER RD,HARLEYSVILLE,PA,19438,1,168876
BUFFALO TOWNSHIP,140 PARK AVE STE 1,140 PARK AVE STE 1,WASHINGTON,PA,15301,0,216281
THE JONES FINANCIAL COMPANIES LLLP,11 E BUTLER AVE,11 E BUTLER AVE,AMBLER,PA,19002,1,8667196
Heritage Builders  Remodelers LLC,5 Eastview Dr,5 Eastview Dr,Glenside,PA,19038,0,163662
NORTHWEST BANK,2626 PEACH ST,2626 PEACH ST,ERIE,PA,16508,0,630000
CREATIVE LICENSE LLC,40 CHERRYDALE RD,40 CHERRYDALE RD,GLEN MILLS,PA,19342,0,58760
WILLS BUILDERS,1513 PENNSYLVANIA AVE W,1513 PENNSYLVANIA AVE W,WARREN,PA,16365,0,257409
JAS MANAGEMENT LLC,1001 STATE ST STE 1102,1001 STATE ST STE 1102,ERIE,PA,16501,5,251900
Inperium Inc,12 Norway Avenue,12 Norway Ave,Wilmington,DE,19801,0,39190510
BEZAS CONTRACTOR INC,25 Goldegate Rd,25 Goldegate Rd,Levittown,PA,19057,,30090
Teresa Cthompson,1643 E Lebanon Rd,1643 E Lebanon Rd,Dover,DE,19901,1,1
HP LAW LLC,1055 WESTLAKES DR STE 300,1055 WESTLAKES DR STE 300,BERWYN,PA,19312,0,0
Community Loans of America Inc,260 South Dupont Highway,260 S Dupont Hwy,Dover,DE,19901,0,2674845
EXTERN INC,352 WATERLOO BLVD UNIT 406,352 WATERLOO BLVD UNIT 406,EXTON,PA,19341,1,101508
Sunny Days Landscaping,P O Box 473,P O Box 473,Bessemer,PA,16112,0,29918
Acts of Generosity,60 W Boot Rd 102,60 W Boot Rd 102,West Chester,PA,19380,1,52000
AIT WORLDWIDE LOGISTICS HOLDINGS INC,850 CALCON HOOK RD BAY1-5,850 CALCON HOOK RD BAY15,SHARON HILL,PA,19079,3,6625270
THE TONDO GROUP LLC,5 LEWIS CIR,5 LEWIS CIR,WILMINGTON,DE,19804,0,253485
ROBINSON LISA,5628 Beaumont Ave,5628 Beaumont Ave,Philadelphia,PA,19143,0,96507
VERANDAH BAY CONDOMINIUM ASSOCIATION,38887 OLD LIGHTHOUSE RD,38887 OLD LIGHTHOUSE RD,SELBYVILLE,DE,19975,1,0
JUSTWORKS EMPLOYMENT GROUP LLC,736 S 20TH ST UNIT B,736 S 20TH ST UNIT B,PHILADELPHIA,PA,19146,3,78904
AIMBRIDGE GROUP HOLDINGS LP,611 WASHINGTON RD,611 WASHINGTON RD,MT. LEBANON,PA,15228,22,3066368
Honey Brook Lawn Care LLC,P.O Box 489,,,,,,
Levity Brewing Company Inc,1380 Wayne Ave Suite A,1380 Wayne Ave Ste A,Indiana,PA,15701,0,918109
Interstate Heavy Rentals Ltd,481 Sycamore Dr,481 Sycamore Dr,Warminster,PA,18974,0,507309
SERENITY HILL FARM LLC,20 SERENITY HL,20 SERENITY HL,CHESWICK,PA,15024,0,84116
ELLIXSONS TAE KWON DO ACADEMY INC,121 East Philadelphia Avenue,121 E Philadelphia Ave,Boyertown,PA,19512,,45245
PRINTERS MACHINERY SERVICES LLC,2109 Fonderwhite Rd,2109 Fonderwhite Rd,Lebanon,PA,17042,0,313280
HERRING SYSTEMS LTD,41 LONGVIEW DR,41 LONGVIEW DR,NAZARETH,PA,18064,0,335960
Movinsky Grounds Management  Transport LLC,3133 New Germany Rd STE 55,3133 New Germany Rd STE 55,Ebensburg,PA,15931,0,55889
VIVO AGENCY LLC,111 E COURT ST,111 E Ct ST,DOYLESTOWN,PA,18901,0,925501
FAI CONSULTING SERVICES INC,17044 TARAMAC DR,17044 TARAMAC DR,REHOBOTH BEACH,DE,19971,0,81700
JAR TRANSPORTATION LLC,118 S 15TH STREET,118 S 15TH St,Allentown,PA,18102,1,37522
PROFESSIONAL PARTNERS IN HUMAN SERVICES LLC,600 GRANT STREET US STEEL,,,,,,
SOUTHERN NEW HAMPSHIRE UNIVERSITY,18 E LEXTON RD,18 E LEXTON RD,NEW CASTLE,DE,19720,0,397553
Mahalaxmi LLC,449 ROUTE 315 HWY,449 Rt 315 HWY,PITTSTON,PA,18640,0,276961
LIVTECH PURCHASER INC,402 WINDSOR CIR,402 WINDSOR CIR,EXTON,PA,19341,1,566362
MICHAEL HOOVER MD DMD,129 EAST HIGH STREET,129 E HIGH St,EBENSBURG,PA,15931,0,248124
Vii Health Inc,116 RESEARCH DR,116 RESEARCH DR,BETHLEHEM,PA,18015,0,0
THE COR PROJECT,209 ROSEMAN CT,209 ROSEMAN CT,NEWARK,DE,19711,1,685877
TAN CHECK CONSOLIDATED INC,2 SILVER TRAIL CIRCLE,2 SILVER TRAIL Cir,NEWTOWN,PA,18940,0,477743
Fiorelli Catering LLC,1501 Main Street,1501 Main St,Peckville,PA,18452,24,520143
Miller William,P.O. Box AH,,,,,,
RITE AID CORPORATION,1709 LIBERTY STREET,1709 LIBERTY St,ERIE,PA,16502,10,392746643
HARRISBURG ELECTRICAL JATC,1501 REVERE ST,1501 REVERE ST,HARRISBURG,PA,17104,0,229600
RURAL LIVING INC SUITE E1,220 REGENT COURT,220 REGENT Ct,STATE COLLEGE,PA,16801,3,809710
Allegheny Woods LLC,345 Windy Acres Ln,345 Windy Acres Ln,Roaring Spring,PA,16673,4,172000
PRIMELINE UTILITY SERVICES LLC,3024 PITTSBURGH ROAD,3024 PITTSBURGH Rd,STAR JUNCTION,PA,15482,0,45344355
MS PAINTING INC,PO BOX 6137,PO BOX 6137,WILMINGTON,DE,19804,0,1507211
DAUGHERTY ROGER,316 WASHINGTON AVENUE,316 WASHINGTON Ave,Bridgeville,PA,15017,0,54513
MOUNTAIN ENERGY SERVICES INC,1 KIM AVE STE 3,1 KIM AVE STE 3,TUNKHANNOCK,PA,18657,0,6732240
Arrington Monica,850 RIDGE AVENUE,850 RIDGE Ave,Pittsburgh,PA,15212,0,276
ST JOHNS LUTHERAN CHURCH,PO BOX 1310,PO BOX 1310,MECHANICSBURG,PA,17055,0,4903773
LECTROMAT INC,108-110 FEY LN,108110 FEY LN,MARS,PA,16046,16,1459699
PERRY COUNTY CHAMBER OF COMMERCE,PO Box 40,PO Box 40,Newport,PA,17074,,33152
IG DESIGN GROUP AMERICAS INC,BIDA BUILDING #288/5 OAK & NORTH STREETS,BIDA BUILDING 288/5 OAK & N StS,BERWICK,PA,18603,58,30369426
CROSSFIRE TECHNOLOGY INC,6366 HAMILTON BLVD,6366 HAMILTON BLVD,ALLENTOWN,PA,18106,0,137900
Partners For Quality Inc,2301 Haymaker Rd,2301 Haymaker Rd,Monroeville,PA,15146,0,36400000
4TECH Inc,480 State Road,,,,,,
WILSON GUSSIE,850 RIDGE AVENUE,850 RIDGE Ave,Pittsburgh,PA,15212,0,19449
JAMISON TRUCKING  AUTO SERVICE,212 W PITTSBURGH ST,212 W PITTSBURGH ST,GREENSBURG,PA,15601,2,20250
Runwell Solutions Inc,Three Radnor Corporate Center,,,,,,
SUNBURY SUB SHOP              RANDELLO INC D/B/A,100 ERIE INSURANCE PLACE,100 ERIE INSURANCE PLACE,ERIE,PA,16530,0,9000
KJ CONSTRUCTION LLC,628 MILFORD HARRINGTON HWY,628 MILFORD HARRINGTON HWY,MILFORD,DE,19963,0,121000
ACCORD RESTORATION INC,28368-28390 John J. Williams Highway,2836828390 John J Williams Hwy,Millsboro,DE,19966,0,1674158
El Coqui Bar  Grill,25 S 4th St,25 S 4th St,Harrisburg,PA,17101,0,25826
INVISION HUMAN SERVICES,135 Fern Hollow Rd Unit 3,135 Fern Hollow Rd Unit 3,Coraopolis,PA,15108,0,33000000
PUBLIC HEALTH MANAGEMENT CORPORATION,BRIDGE 1100 ADAMS AVENUE,BRIDGE 1100 ADAMS Ave,PHILADELPHIA,PA,19124,33,155108658
Carluke LLC,1839 S 7TH ST,1839 S 7TH ST,PHILADELPHIA,PA,19148,0,67400
R Coole DMD  Roger M Stager DJohn,17 N Main St,17 N Main St,Mansfield,PA,16933,5,233800
MILLEVOI BROTHERS GOODYEAR,100 ERIE INSURANCE PLACE,100 ERIE INSURANCE PLACE,ERIE,PA,16530,0,340505
DINGMANS FUEL TRANSFER        CORPORATION,PO BOX 460,PO BOX 460,HAMLIN,PA,18427,0,60416
SECURA BIO HOLDINGS INC,108 VIRGINIA AVENUE,108 VIRGINIA Ave,Sharpsburg,PA,15215,1,308474
UKPEAGVIK INUPIAT CORPORATION,128 TANGLEWOOD LN,128 TANGLEWOOD LN,CHAMBERSBURG,PA,17201,0,51447
DAMARQUES CONSTRUCTION LLC,PO BOX 1174,PO BOX 1174,REHOBOTH BEACH,DE,19971,0,26000
Bower Cafe 1213 LLC,1213 Walnut Street FL 1,1213 Walnut St FL 1,Philadelphia,PA,19107,15,45400
Homelink Inc,2753 Ridge Ave,2753 Ridge Ave,Philadelphia,PA,19121,10,453728
PT CARE LLC,2651 HUNTINGDON PIKE STE 2,2651 HUNTINGDON Pk STE 2,HUNTINGDON VY,PA,19006,0,187050
Service Safety Solutions Inc,2127 Race St,2127 Race St,PHILADELPHIA,PA,19103,5,0
Kratsa Properties Etal,23 The Trillium,23 The Trillium,Pittsburgh,PA,15238,0,24658
VAPOR BROTHERS INC,1241 BLAKESLEE BOULEVARD DR E,1241 BLAKESLEE Blvd DR E,LEHIGHTON,PA,18235,0,108848
ROSENGRANTS FLOOR SANDING,RD 4 BOX 273,RD 4 BOX 273,LAKE ARIEL,PA,18436,,18956
BUNDLES OF JOY LEARNING ACADEMY LLC,104 W LOGAN ST,104 W LOGAN ST,PHILADELPHIA,PA,19144,0,66149
IVY REHAB NETWORK INC,2285 CROSS RD,2285 CROSS RD,GLENSIDE,PA,19038,2,38564233
CUSTOM TURF INC,46 Public Square,,,,,,
FETTERMAN INSURANCE AGENCY    INC,ONE STATE FARM DR.,ONE STATE FARM DR,CONCORDVILLE,PA,19339,0,572956
Paint Nail Bar,2915 PERSIMMON DR,2915 PERSIMMON DR,YORK,PA,17404,0,313454
GINNONA COMMUNICATIONS INC,2 RADNOR STATION #302,2 RADNOR STATION 302,RADNOR,PA,19087,0,55900
Stotka Construction,15 Church Street P.O. Box 428,15 Church St PO Box 428,Richeyville,PA,15358,0,37635
Splat Productions Inc,P.O. Box AH,,,,,,
GV AIR INC,NE PHILADELPHIA AIRPORT 9800 ASHTON AVE.,NE PHILADELPHIA AIRPORT 9800 ASHTON AVE,PHILADELPHIA,PA,19114,27,2206557
EDWARD P MOAN III,120 IDA DR,120 IDA DR,GLENSHAW,PA,15116,2,80000
ANI PHARMACEUTICALS INC,587 OLD BALTIMORE PIKE,587 OLD BALTIMORE Pk,NEWARK,DE,19702,0,4600000
Tommy Johns Pizzeria LLC,411 Bridge St,411 Bridge St,Morrisville,PA,19067,0,65000
GANNETT FLEMING INC,3949 SCHELDEN CIR,3949 SCHELDEN CIR,BETHLEHEM,PA,18017,31,94478275
ROCK GATE CAPITAL LLC,1450 CAPITOL TRAIL; UNIT 13,1450 CAPITOL TRAIL; UNIT 13,NEWARK,DE,19711,1,272443
NPC Connected Solutions LLC,1631 S. Atherton St,1631 S Atherton St,State College,PA,16801,0,29216
JAMES DULCEY,174 DULCEY RD,174 DULCEY RD,WEATHERLY,PA,18255,0,21600
FRY BROTHERS TURKEY RANCH LLC,27 RTE 184 HWY,27 Rt 184 HWY,TROUT RUN,PA,17771,2,557456
Caitlyn Mellin and Shane Mellin dba Vagr Venture LLC,107 REHOBOTH AVE,107 REHOBOTH AVE,REHOBOTH BEACH,DE,19971,0,42779
ORIENTAL PEARL 18 MASSAGE LLC,4003 TRINDLE RD,4003 TRINDLE RD,CAMP HILL,PA,17011,0,26000
SMYTH  SMYTH INC,401 W OREGON AVE,401 W OREGON AVE,PHILADELPHIA,PA,19148,0,131213
Old Philadelphia Associates Inc,100 Granite Dr STE 205,100 Granite Dr STE 205,Media,PA,19063,,981000
THE SQUIRREL AND ACORN        BOOKSHOP,103 SOUTH ALLEN,103 S ALLEN,STATE COLLEGE,PA,16801,1,40000
KEYSTONE COMMUNITY FELLOWSHIP,427 STUMP RD,427 STUMP RD,NORTH WALES,PA,19454,0,3495516
CR MULTI SERVICE CLEANING LLC,65 N DUPONT HWY,65 N DUPONT HWY,DOVER,DE,19901,0,320830
VILLAGE GREEN FAMILY RESTAURAN,2300 E. MARKET STREET,2300 E MARKET St,YORK,PA,17402,6,80000
Equine Performance Veterinary Services PLLC,170 Ray Weyandt Rd,170 Ray Weyandt Rd,Greensburg,PA,15601,2,85324
BOLTZ  WHEELZ FUNSHOP LLC    FUNTASTIK D/B/A,95 16TH ST,95 16TH ST,NEW CUMBERLAND,PA,17070,0,25340
Lisa Bergamasco,9807 Saltsburg Rd,9807 Saltsburg Rd,Pittsburgh,PA,15239,3,7462
Max Tax Holdings PA Inc DBA Jackson Hewitt Tax Service,3716 N BROAD ST,3716 N BROAD ST,PHILADELPHIA,PA,19140,2,1171794
AMPP CAFE LLC,1139 CAPOUSE AVE,1139 CAPOUSE AVE,SCRANTON,PA,18509,0,75000
TODD SMITH LOGGING INC,100 ERIE INSURANCE PLACE,100 ERIE INSURANCE PLACE,ERIE,PA,16530,0,0
LCS COMMUNITY EMPLOYMENT LLC FOULK MANOR NORTH,1212 FOULK ROAD,1212 FOULK Rd,WILMINGTON,DE,19803,0,16709008
FRANK T PERANO,OLD RTE 22,,,,,,
HORNEMAN SURVEYING LLC,1110 DALLAS AVE,1110 DALLAS AVE,NATRONA HEIGHTS,PA,15065,0,25000
Collection Management Company,9071 MILL CREEK RD,9071 MILL CREEK RD,LEVITTOWN,PA,19054,0,60156
GEMINIS PAINTING LLC,24083 SHORTLY RD,24083 SHORTLY RD,GEORGETOWN,DE,19947,0,300000
EOG RESOURCES INC,2039 SOUTH SIXTH STREET,2039 S SIXTH St,INDIANA,PA,15701,0,189549
FRANCIS J COLLINI MD FACS PC,215 Wyoming Avenue,215 Wyoming Ave,Scranton,PA,18503,0,796096
ARBOR LANDSCAPING             STEPHEN HEBENSTREIT D/B/A,957 DIXON AVE,957 DIXON AVE,CROYDON,PA,19021,0,46592
BABOOK LLC,206 E PITTSBURGH STREET,206 E PITTSBURGH St,Greensburg,PA,15601,6,160696
REBECCA BAUM TAX               ACCOUNTING LLC,2990 MOUNT JOY RD,2990 MOUNT JOY RD,MANHEIM,PA,17545,0,85000
Iradell Harden,61 Corporate CirclePASdept.,61 Corporate CirPASdept,New Castle,DE,19720,0,1
Everything Bagels LLC,9 North Main Street Suite 3,9 N Main St Ste 3,Pittston,PA,18640,0,3300
ROBERTS ADVERTISING LLC,409-411 PENN STREET,409411 PENN St,HUNTINGDON,PA,16652,0,17406
TIM STOCKTON CONTRACTING,1105 BERKSHIRE BLVD,1105 BERKSHIRE BLVD,WYOMISSING,PA,19610,0,149396
DEVOTED TO YOU                MELISSA CRAWFORD D/B/A,232 N BALPH AVE,232 N BALPH AVE,PITTSBURGH,PA,15202,0,80000
Terrence L Allshouse Jr DBA Allshouse Energy,8720 Stony Point Parkway,8720 Stony Point Pkwy,Rockwood,PA,15557,0,238362
MATCHMAKERS INC,18 Richboro Rd,18 Richboro Rd,Newtown,PA,18940,8,145212
OXFORD PRODUCE LLC,5711 OXFORD AVE,5711 OXFORD AVE,PHILADELPHIA,PA,19149,0,96126
EB ENDRES INC,1051 SHILOH ROAD,1051 SHILOH Rd,STATE COLLEGE,PA,16801,0,1353772
,,,,,,,
(1000 rows affected),,,,,,,
,,,,,,,
,,,,,,,
Completion time: 2024-12-12T14:03:28.3010334-05:00,,,,,,,
